<?xml version="1.0" encoding="UTF-8"?>
<!-- Created with BasicAirData GPS Logger for Android - ver. 3.3.0 -->
<!-- Track 3 = 1009 TrackPoints + 0 Placemarks -->
<kml xmlns="http://www.opengis.net/kml/2.2">
 <Document>
  <name>GPS Logger 20260925-183722</name>
  <description><![CDATA[Old goa-Panjim
1009 Trackpoints + 0 Placemarks]]></description>
  <Style id="TrackStyle">
   <LineStyle>
    <color>ff0000ff</color>
    <width>3</width>
   </LineStyle>
   <PolyStyle>
    <color>7f0000ff</color>
   </PolyStyle>
   <BalloonStyle>
    <text><![CDATA[<p style="color:red;font-weight:bold">$[name]</p><p style="font-size:11px">$[description]</p><p style="font-size:7px">Track Stats based on: Total time | Time in Movement</p>]]></text>
   </BalloonStyle>
  </Style>

  <Placemark id="20260925-183722">
   <name>Track 20260925-183722</name>
   <description><![CDATA[<b>Old goa-Panjim</b><br><br>Distance = 9.11 km<br>Duration = 16:48 | 12:24<br>Altitude Gap = -79 m<br>Max Speed = 67 km/h<br>Avg Speed = 32.5 | 44.1 km/h<br>Direction = W <br><br><i>1009 Trackpoints</i>]]></description>
   <styleUrl>#TrackStyle</styleUrl>
   <LineString>
    <extrude>0</extrude>
    <tessellate>0</tessellate>
    <altitudeMode>clampToGround</altitudeMode>
    <coordinates>
     73.90454401,15.48762341,5.001
     73.90444485,15.48755833,5.762
     73.90434399,15.48749509,6.060
     73.90424459,15.48742791,6.184
     73.90414083,15.48737134,6.827
     73.90404048,15.48730862,7.274
     73.90393257,15.48724839,7.344
     73.90382695,15.48719289,7.458
     73.90371682,15.48713533,7.868
     73.90360579,15.48708571,7.673
     73.90349612,15.48703355,7.694
     73.90337860,15.48698527,8.471
     73.90326441,15.48693549,9.049
     73.90314580,15.48689201,9.233
     73.90302814,15.48684525,9.008
     73.90291605,15.48679965,9.100
     73.90279632,15.48674994,9.516
     73.90268042,15.48671435,10.291
     73.90256802,15.48667530,10.229
     73.90245041,15.48665067,10.380
     73.90232777,15.48662986,10.196
     73.90220320,15.48660389,10.835
     73.90209123,15.48659073,12.031
     73.90196268,15.48657830,12.031
     73.90183502,15.48655828,11.461
     73.90169774,15.48654774,11.447
     73.90155736,15.48653664,10.943
     73.90142458,15.48652871,10.378
     73.90129230,15.48652569,9.648
     73.90115773,15.48653352,9.096
     73.90102509,15.48654215,10.041
     73.90087702,15.48655551,10.749
     73.90069328,15.48659470,10.376
     73.90055877,15.48661760,7.850
     73.90041469,15.48663554,7.940
     73.90027688,15.48665868,7.837
     73.90012045,15.48667830,8.139
     73.89998238,15.48670519,7.959
     73.89984898,15.48674597,9.224
     73.89971061,15.48678347,10.349
     73.89957249,15.48682202,10.905
     73.89943492,15.48687090,11.617
     73.89929955,15.48692129,11.639
     73.89918398,15.48699554,12.982
     73.89906616,15.48707589,13.169
     73.89895843,15.48716434,13.226
     73.89884328,15.48725337,13.198
     73.89872958,15.48734377,12.460
     73.89862257,15.48742163,12.961
     73.89851828,15.48752532,12.226
     73.89842068,15.48762058,12.721
     73.89831323,15.48771775,12.852
     73.89820677,15.48781038,13.097
     73.89810101,15.48790586,13.474
     73.89799659,15.48799565,13.782
     73.89788414,15.48809378,13.003
     73.89778549,15.48818362,13.161
     73.89767933,15.48827141,13.087
     73.89757976,15.48836351,13.776
     73.89747730,15.48845202,14.047
     73.89738144,15.48854296,14.241
     73.89727925,15.48864029,14.739
     73.89717854,15.48873699,14.494
     73.89707297,15.48883235,14.616
     73.89696077,15.48892260,14.311
     73.89684315,15.48900834,14.510
     73.89672723,15.48909066,15.268
     73.89659848,15.48916740,15.152
     73.89647030,15.48922724,14.649
     73.89633328,15.48928823,14.684
     73.89619755,15.48934800,14.564
     73.89605192,15.48939977,14.911
     73.89590813,15.48944880,15.253
     73.89576726,15.48950062,15.295
     73.89562768,15.48956827,13.525
     73.89548614,15.48962017,13.659
     73.89534167,15.48967519,15.420
     73.89519378,15.48971629,14.868
     73.89503712,15.48977434,13.535
     73.89488329,15.48982404,13.465
     73.89473686,15.48987185,13.742
     73.89458900,15.48992024,14.196
     73.89443866,15.48996612,14.575
     73.89428578,15.49000692,13.831
     73.89413477,15.49005084,14.308
     73.89398840,15.49009761,13.484
     73.89384674,15.49014598,12.336
     73.89370113,15.49018204,11.683
     73.89355069,15.49022866,11.183
     73.89340164,15.49027512,10.970
     73.89325187,15.49031282,9.492
     73.89310181,15.49035375,9.021
     73.89295052,15.49040331,8.002
     73.89281120,15.49044360,6.312
     73.89266427,15.49048977,6.913
     73.89250985,15.49053405,6.777
     73.89235696,15.49057348,6.764
     73.89220553,15.49062413,7.441
     73.89205404,15.49067017,7.869
     73.89189406,15.49070856,7.236
     73.89173341,15.49074649,6.645
     73.89156899,15.49081167,5.557
     73.89141100,15.49085785,5.293
     73.89124604,15.49090453,4.400
     73.89108966,15.49095270,4.701
     73.89093068,15.49100316,4.899
     73.89077588,15.49104775,4.932
     73.89062460,15.49109822,3.868
     73.89046776,15.49114710,3.631
     73.89030799,15.49118941,2.814
     73.89014713,15.49123833,3.941
     73.88998732,15.49128587,4.164
     73.88984328,15.49133846,3.569
     73.88968965,15.49138502,3.500
     73.88953362,15.49143468,3.651
     73.88938338,15.49148624,3.985
     73.88921501,15.49153754,4.329
     73.88906754,15.49158648,4.279
     73.88891389,15.49163508,4.337
     73.88875441,15.49168190,4.291
     73.88859862,15.49173100,4.331
     73.88844086,15.49177806,4.277
     73.88829576,15.49182946,6.375
     73.88813847,15.49187555,5.455
     73.88798836,15.49191734,6.140
     73.88783086,15.49197642,4.871
     73.88768693,15.49202634,5.984
     73.88753594,15.49208102,6.045
     73.88738791,15.49211939,7.253
     73.88723490,15.49216799,5.652
     73.88708093,15.49221246,5.884
     73.88693914,15.49226663,5.713
     73.88678695,15.49231494,4.848
     73.88663326,15.49236544,3.517
     73.88649221,15.49242526,5.065
     73.88634551,15.49249124,3.365
     73.88619726,15.49253387,1.888
     73.88604091,15.49258951,1.292
     73.88588500,15.49263564,1.509
     73.88572271,15.49268425,1.528
     73.88556493,15.49273181,0.901
     73.88540987,15.49278124,1.163
     73.88523977,15.49283587,-1.120
     73.88509425,15.49287794,1.046
     73.88493982,15.49293071,1.051
     73.88478545,15.49298076,1.186
     73.88462398,15.49303391,0.932
     73.88446602,15.49308598,-0.086
     73.88430411,15.49313650,0.884
     73.88414775,15.49318633,0.601
     73.88399018,15.49324522,-0.191
     73.88383345,15.49330580,-0.448
     73.88367832,15.49336250,-0.247
     73.88352755,15.49340969,-0.242
     73.88337263,15.49346293,-0.369
     73.88321942,15.49351738,-0.344
     73.88307280,15.49358328,-0.160
     73.88290673,15.49366434,-0.267
     73.88275549,15.49373400,-0.527
     73.88260855,15.49380018,-0.235
     73.88246524,15.49387227,-0.553
     73.88233093,15.49395112,-0.568
     73.88220385,15.49403672,-1.068
     73.88207362,15.49413326,0.554
     73.88194268,15.49422080,-0.079
     73.88181856,15.49430448,-0.990
     73.88168837,15.49439632,-1.246
     73.88155043,15.49449542,-1.382
     73.88142330,15.49459031,-1.764
     73.88128919,15.49469005,-1.761
     73.88116604,15.49478494,-0.632
     73.88102829,15.49487937,0.032
     73.88090687,15.49497358,-0.638
     73.88077926,15.49506643,-0.582
     73.88065361,15.49516115,-1.184
     73.88053214,15.49525123,-2.015
     73.88040199,15.49534255,-2.740
     73.88027600,15.49544388,-2.635
     73.88015872,15.49553799,-3.173
     73.88003359,15.49563008,-3.925
     73.87989835,15.49573101,-5.192
     73.87976957,15.49582574,-4.939
     73.87964152,15.49592549,-5.790
     73.87951771,15.49602024,-6.527
     73.87939360,15.49611204,-7.658
     73.87927869,15.49620623,-7.747
     73.87914695,15.49631304,-10.949
     73.87902443,15.49639901,-10.941
     73.87889947,15.49649493,-11.828
     73.87877954,15.49658985,-11.633
     73.87865187,15.49668499,-13.404
     73.87853585,15.49676956,-14.270
     73.87841505,15.49685620,-15.102
     73.87828257,15.49693965,-14.264
     73.87815743,15.49702300,-14.233
     73.87803693,15.49710506,-13.991
     73.87791349,15.49718858,-14.736
     73.87778690,15.49727039,-15.012
     73.87766609,15.49734151,-13.452
     73.87753951,15.49741711,-13.243
     73.87741274,15.49749467,-13.236
     73.87729289,15.49756471,-13.626
     73.87716271,15.49762720,-12.863
     73.87703322,15.49771551,-15.428
     73.87690861,15.49779462,-15.113
     73.87677222,15.49787188,-14.606
     73.87664216,15.49794753,-15.114
     73.87651215,15.49802221,-15.485
     73.87637615,15.49810564,-17.150
     73.87623768,15.49818459,-17.749
     73.87610949,15.49826570,-17.539
     73.87597829,15.49834083,-17.474
     73.87582840,15.49843158,-20.904
     73.87569055,15.49850492,-21.025
     73.87556918,15.49857375,-23.406
     73.87544066,15.49863932,-23.203
     73.87530812,15.49870614,-23.404
     73.87517202,15.49877642,-23.140
     73.87504077,15.49884538,-22.881
     73.87490569,15.49891349,-22.831
     73.87476568,15.49897369,-24.075
     73.87461691,15.49902813,-24.355
     73.87447377,15.49908171,-25.046
     73.87434128,15.49911965,-25.133
     73.87419483,15.49916523,-24.962
     73.87405354,15.49919860,-24.675
     73.87391660,15.49923508,-24.576
     73.87377264,15.49926846,-24.155
     73.87362842,15.49929497,-24.238
     73.87348205,15.49931636,-24.219
     73.87332871,15.49932507,-25.767
     73.87318068,15.49933249,-26.007
     73.87303401,15.49934401,-26.133
     73.87290262,15.49935192,-25.148
     73.87276021,15.49935066,-25.328
     73.87261576,15.49935682,-25.387
     73.87248627,15.49934789,-24.962
     73.87233894,15.49934918,-25.090
     73.87219996,15.49935755,-25.282
     73.87205771,15.49936928,-25.589
     73.87191340,15.49937140,-26.075
     73.87176355,15.49936158,-27.147
     73.87161523,15.49936326,-27.095
     73.87147130,15.49937205,-25.105
     73.87132792,15.49936514,-25.120
     73.87118482,15.49936313,-25.477
     73.87104202,15.49936181,-25.582
     73.87089200,15.49937457,-25.267
     73.87075358,15.49938604,-25.188
     73.87061315,15.49940205,-26.023
     73.87048004,15.49943120,-26.027
     73.87034389,15.49944687,-26.829
     73.87020772,15.49946300,-27.299
     73.87006665,15.49947402,-27.644
     73.86992027,15.49948907,-27.423
     73.86977274,15.49950794,-26.908
     73.86962387,15.49952869,-26.774
     73.86948085,15.49953999,-27.871
     73.86933271,15.49955938,-28.793
     73.86918989,15.49958037,-29.581
     73.86904663,15.49960349,-31.186
     73.86889721,15.49961249,-31.930
     73.86875113,15.49962986,-32.365
     73.86860569,15.49964793,-32.586
     73.86846268,15.49965410,-33.427
     73.86832262,15.49967375,-34.699
     73.86817119,15.49970417,-34.778
     73.86803430,15.49972956,-34.436
     73.86788441,15.49975361,-34.551
     73.86774011,15.49977833,-35.310
     73.86758403,15.49980234,-36.254
     73.86743461,15.49981948,-36.931
     73.86728206,15.49983943,-37.501
     73.86714018,15.49985982,-36.925
     73.86699881,15.49988319,-37.394
     73.86685904,15.49990550,-37.917
     73.86672794,15.49992542,-39.080
     73.86659507,15.49994616,-39.902
     73.86646290,15.49997481,-40.449
     73.86633541,15.49999170,-40.866
     73.86620602,15.50001296,-41.228
     73.86608000,15.50003171,-41.444
     73.86595507,15.50004299,-41.614
     73.86583110,15.50004604,-41.156
     73.86570704,15.50004864,-42.393
     73.86558858,15.50003966,-41.955
     73.86546818,15.50004646,-42.221
     73.86534506,15.50004702,-43.195
     73.86522396,15.50003367,-43.875
     73.86509974,15.50001145,-45.437
     73.86497572,15.49999762,-45.952
     73.86485138,15.49998352,-46.894
     73.86472490,15.49995730,-47.124
     73.86460889,15.49991427,-49.691
     73.86448588,15.49986699,-51.091
     73.86435633,15.49981841,-51.759
     73.86422772,15.49977091,-52.047
     73.86412029,15.49970223,-55.516
     73.86401045,15.49963248,-57.474
     73.86389421,15.49956706,-57.719
     73.86377822,15.49948215,-58.685
     73.86366455,15.49939068,-60.023
     73.86355109,15.49931375,-60.532
     73.86344704,15.49923102,-60.874
     73.86333708,15.49915182,-61.095
     73.86322897,15.49906661,-61.520
     73.86312020,15.49897884,-62.967
     73.86301401,15.49890437,-63.881
     73.86290468,15.49881673,-64.836
     73.86280143,15.49873740,-64.919
     73.86270686,15.49864981,-66.142
     73.86259662,15.49856101,-67.098
     73.86250348,15.49849344,-69.846
     73.86240447,15.49842367,-71.056
     73.86231048,15.49835942,-72.897
     73.86221321,15.49828162,-72.786
     73.86210663,15.49819912,-73.050
     73.86201225,15.49813134,-73.990
     73.86191070,15.49806484,-74.290
     73.86181200,15.49798942,-75.366
     73.86171629,15.49790930,-75.363
     73.86162613,15.49785182,-75.717
     73.86153018,15.49778158,-75.551
     73.86143765,15.49771149,-75.657
     73.86135452,15.49765258,-74.952
     73.86126058,15.49757557,-76.630
     73.86116587,15.49750607,-76.787
     73.86107591,15.49743086,-77.565
     73.86097577,15.49735101,-78.753
     73.86087898,15.49727595,-79.009
     73.86077306,15.49720275,-80.765
     73.86066665,15.49711623,-81.251
     73.86056104,15.49704929,-81.182
     73.86043598,15.49695689,-81.276
     73.86029742,15.49688046,-82.713
     73.86016854,15.49681068,-82.718
     73.86003133,15.49674507,-82.058
     73.85989491,15.49668076,-81.968
     73.85975115,15.49661968,-82.152
     73.85961024,15.49656628,-81.721
     73.85945793,15.49650695,-83.070
     73.85931312,15.49645922,-82.657
     73.85916295,15.49640847,-82.687
     73.85901917,15.49636804,-83.775
     73.85887431,15.49632722,-84.657
     73.85872951,15.49628315,-84.550
     73.85858364,15.49624574,-84.679
     73.85844749,15.49621004,-83.579
     73.85830477,15.49616568,-83.027
     73.85817539,15.49613084,-81.527
     73.85803853,15.49609361,-78.835
     73.85789631,15.49606431,-79.449
     73.85775365,15.49603468,-79.000
     73.85761134,15.49600032,-78.763
     73.85746270,15.49596176,-79.165
     73.85730596,15.49592679,-77.734
     73.85715608,15.49588938,-77.667
     73.85699335,15.49586867,-77.331
     73.85684913,15.49583423,-76.862
     73.85669715,15.49579781,-76.866
     73.85652832,15.49578050,-78.225
     73.85636679,15.49574549,-78.633
     73.85620265,15.49571109,-78.585
     73.85603772,15.49568671,-80.804
     73.85587627,15.49564995,-80.629
     73.85571258,15.49560711,-80.744
     73.85554819,15.49557477,-80.639
     73.85538355,15.49553635,-80.624
     73.85520952,15.49549869,-82.932
     73.85504580,15.49545975,-83.198
     73.85486508,15.49543164,-85.014
     73.85468190,15.49539887,-86.112
     73.85451794,15.49536637,-85.996
     73.85434988,15.49533337,-85.586
     73.85418473,15.49528258,-85.544
     73.85401810,15.49524259,-85.461
     73.85385568,15.49520890,-85.605
     73.85369070,15.49517093,-85.468
     73.85352903,15.49512881,-85.123
     73.85335735,15.49507836,-85.369
     73.85319774,15.49503866,-84.880
     73.85303059,15.49500457,-83.917
     73.85286643,15.49496791,-83.816
     73.85269130,15.49493115,-84.365
     73.85253302,15.49488042,-84.389
     73.85236991,15.49483113,-84.326
     73.85221617,15.49477847,-83.905
     73.85206682,15.49472364,-82.834
     73.85190781,15.49465729,-83.147
     73.85175268,15.49459820,-83.025
     73.85160097,15.49453511,-82.895
     73.85145356,15.49447227,-82.593
     73.85130238,15.49440930,-82.434
     73.85114689,15.49434585,-81.848
     73.85099163,15.49427884,-81.858
     73.85083482,15.49421388,-81.581
     73.85067692,15.49413571,-82.086
     73.85052996,15.49407273,-82.235
     73.85038041,15.49400129,-81.887
     73.85022950,15.49393545,-81.495
     73.85007617,15.49386465,-81.123
     73.84992548,15.49379341,-81.103
     73.84977304,15.49370156,-80.200
     73.84962725,15.49364387,-81.290
     73.84947483,15.49357331,-81.785
     73.84933340,15.49350194,-81.918
     73.84918085,15.49343837,-82.716
     73.84903246,15.49336368,-81.686
     73.84887333,15.49329845,-83.827
     73.84873239,15.49323707,-83.418
     73.84859284,15.49317711,-84.602
     73.84845354,15.49311681,-84.816
     73.84832471,15.49304466,-83.938
     73.84818980,15.49297961,-84.115
     73.84805560,15.49290664,-83.585
     73.84792057,15.49284750,-84.766
     73.84778843,15.49278000,-83.352
     73.84765527,15.49271611,-83.845
     73.84752535,15.49266125,-84.022
     73.84739412,15.49260457,-84.449
     73.84726240,15.49253956,-84.936
     73.84712888,15.49247959,-84.692
     73.84699749,15.49242278,-85.097
     73.84686412,15.49236360,-84.884
     73.84672841,15.49230922,-84.329
     73.84659623,15.49225735,-83.543
     73.84647618,15.49220499,-81.640
     73.84634452,15.49214971,-81.366
     73.84620949,15.49209088,-81.159
     73.84607851,15.49203121,-81.685
     73.84595094,15.49197249,-82.269
     73.84582205,15.49191415,-81.854
     73.84569075,15.49185855,-81.724
     73.84554867,15.49180301,-82.041
     73.84541915,15.49174660,-81.909
     73.84530756,15.49169087,-81.067
     73.84518153,15.49163423,-80.696
     73.84504852,15.49158246,-80.850
     73.84492143,15.49152456,-80.975
     73.84479731,15.49147528,-80.368
     73.84464651,15.49142369,-81.116
     73.84451417,15.49138841,-81.525
     73.84438442,15.49136447,-79.210
     73.84425132,15.49134571,-78.420
     73.84411493,15.49134146,-77.662
     73.84397490,15.49134356,-77.045
     73.84384229,15.49136485,-76.529
     73.84370635,15.49137902,-74.693
     73.84357955,15.49141144,-75.519
     73.84346390,15.49145070,-74.804
     73.84335060,15.49150123,-74.404
     73.84324695,15.49154032,-74.938
     73.84314403,15.49159514,-75.202
     73.84305535,15.49164930,-75.675
     73.84296588,15.49171392,-75.561
     73.84288107,15.49177886,-75.471
     73.84278759,15.49184591,-76.513
     73.84268812,15.49190818,-76.472
     73.84260121,15.49197047,-76.779
     73.84251948,15.49203463,-76.666
     73.84243467,15.49209412,-77.111
     73.84235170,15.49215273,-77.080
     73.84227494,15.49220023,-78.237
     73.84218881,15.49225154,-78.671
     73.84209645,15.49230816,-79.152
     73.84200105,15.49237483,-80.233
     73.84191765,15.49243492,-80.043
     73.84183394,15.49249358,-79.710
     73.84173556,15.49255977,-79.767
     73.84165013,15.49261917,-79.907
     73.84155089,15.49268264,-79.058
     73.84144415,15.49275146,-78.672
     73.84134450,15.49281403,-77.764
     73.84124101,15.49287936,-78.447
     73.84111827,15.49295695,-77.911
     73.84100379,15.49303817,-77.559
     73.84088431,15.49310770,-77.243
     73.84077299,15.49318123,-76.708
     73.84066031,15.49325352,-76.726
     73.84055262,15.49332259,-75.831
     73.84045053,15.49339571,-74.734
     73.84034727,15.49346706,-74.078
     73.84024777,15.49353829,-73.837
     73.84014239,15.49361088,-73.819
     73.84003729,15.49368844,-73.628
     73.83993237,15.49377224,-71.599
     73.83982679,15.49384815,-71.379
     73.83971219,15.49392187,-71.114
     73.83959899,15.49399657,-71.049
     73.83950015,15.49406587,-70.915
     73.83938677,15.49413970,-70.324
     73.83927701,15.49421301,-70.254
     73.83916639,15.49427858,-69.943
     73.83905346,15.49435210,-70.271
     73.83894461,15.49442374,-70.249
     73.83884553,15.49451036,-69.195
     73.83873469,15.49459282,-69.370
     73.83863378,15.49468301,-67.519
     73.83854405,15.49477333,-66.379
     73.83847049,15.49485988,-65.673
     73.83837156,15.49495731,-64.410
     73.83827412,15.49505901,-65.123
     73.83818822,15.49516099,-64.874
     73.83810010,15.49526306,-64.467
     73.83801955,15.49536880,-64.901
     73.83794531,15.49547507,-65.051
     73.83787105,15.49558621,-65.185
     73.83779490,15.49569386,-66.263
     73.83771622,15.49580282,-66.405
     73.83763927,15.49591503,-66.732
     73.83758878,15.49603072,-66.500
     73.83753576,15.49616367,-67.148
     73.83749267,15.49629402,-67.605
     73.83744655,15.49643129,-69.467
     73.83741223,15.49654752,-69.698
     73.83738798,15.49666927,-70.639
     73.83736873,15.49679185,-70.669
     73.83734909,15.49692189,-70.927
     73.83732988,15.49704285,-70.943
     73.83732718,15.49715261,-71.659
     73.83730525,15.49727551,-71.958
     73.83730073,15.49739729,-73.034
     73.83728251,15.49749698,-74.431
     73.83727267,15.49761539,-74.951
     73.83726660,15.49772790,-75.436
     73.83725636,15.49785918,-75.274
     73.83724981,15.49797888,-74.617
     73.83724443,15.49805240,-74.244
     73.83723746,15.49814315,-74.086
     73.83722651,15.49823714,-73.457
     73.83721754,15.49832717,-73.191
     73.83721109,15.49840463,-74.265
     73.83718052,15.49842947,-73.885
     73.83717743,15.49845746,-74.927
     73.83717219,15.49847999,-76.109
     73.83716197,15.49849871,-76.733
     73.83715254,15.49852090,-77.241
     73.83714033,15.49855025,-76.374
     73.83712446,15.49855306,-76.622
     73.83711441,15.49857249,-76.560
     73.83708248,15.49858460,-75.675
     73.83705583,15.49859806,-74.732
     73.83702926,15.49859980,-74.639
     73.83697972,15.49859202,-74.753
     73.83693048,15.49858119,-75.419
     73.83687508,15.49854402,-75.043
     73.83682518,15.49852388,-74.883
     73.83676700,15.49850114,-74.545
     73.83670457,15.49846691,-74.354
     73.83663827,15.49842798,-74.060
     73.83657373,15.49839417,-74.020
     73.83651476,15.49835568,-72.990
     73.83644451,15.49832630,-72.709
     73.83638399,15.49829086,-72.208
     73.83631530,15.49825617,-72.226
     73.83625302,15.49822175,-72.370
     73.83619325,15.49819095,-72.077
     73.83613765,15.49814662,-72.475
     73.83609598,15.49807713,-73.563
     73.83606225,15.49800254,-73.974
     73.83605615,15.49790162,-75.149
     73.83606127,15.49780525,-75.743
     73.83606941,15.49770436,-77.157
     73.83605933,15.49762151,-78.022
     73.83605772,15.49751268,-77.397
     73.83605418,15.49741243,-76.793
     73.83603690,15.49730558,-75.269
     73.83604093,15.49720281,-75.480
     73.83603494,15.49709951,-75.748
     73.83604769,15.49700176,-74.910
     73.83605183,15.49690924,-74.364
     73.83606186,15.49682540,-73.565
     73.83607206,15.49673787,-74.663
     73.83611071,15.49666920,-74.500
     73.83618929,15.49661301,-75.133
     73.83625836,15.49656160,-75.617
     73.83631821,15.49652042,-75.471
     73.83638400,15.49648100,-74.938
     73.83645399,15.49643394,-74.773
     73.83653565,15.49642410,-75.708
     73.83662482,15.49642168,-76.856
     73.83670403,15.49642827,-76.196
     73.83677946,15.49644892,-76.639
     73.83684801,15.49648434,-76.218
     73.83692206,15.49650649,-76.572
     73.83698234,15.49652951,-77.148
     73.83703636,15.49653416,-77.516
     73.83707412,15.49651588,-77.233
     73.83710258,15.49649534,-75.688
     73.83713022,15.49648268,-75.666
     73.83714992,15.49643764,-74.590
     73.83716744,15.49640733,-74.046
     73.83718074,15.49637292,-74.486
     73.83718720,15.49633177,-74.262
     73.83718930,15.49628791,-73.191
     73.83718990,15.49625046,-74.074
     73.83719330,15.49621074,-74.190
     73.83719360,15.49617307,-74.393
     73.83719325,15.49614074,-74.927
     73.83719183,15.49611376,-75.110
     73.83718771,15.49609230,-75.632
     73.83718108,15.49607846,-75.822
     73.83717463,15.49607237,-77.166
     73.83716838,15.49606658,-77.815
     73.83716185,15.49606025,-77.831
     73.83715437,15.49605649,-78.590
     73.83713989,15.49605361,-79.307
     73.83711725,15.49605312,-79.717
     73.83708519,15.49605744,-80.121
     73.83705127,15.49606783,-79.937
     73.83701785,15.49608338,-78.901
     73.83698999,15.49610427,-79.683
     73.83696268,15.49612645,-79.564
     73.83691777,15.49617789,-80.509
     73.83687052,15.49620635,-80.474
     73.83681990,15.49622681,-79.307
     73.83676495,15.49624938,-79.516
     73.83670953,15.49626064,-79.967
     73.83666595,15.49625906,-80.390
     73.83662457,15.49624018,-80.396
     73.83657472,15.49623380,-81.030
     73.83653440,15.49620462,-81.117
     73.83648492,15.49617893,-81.366
     73.83646353,15.49614676,-80.094
     73.83644313,15.49612496,-80.147
     73.83642996,15.49610963,-79.924
     73.83641768,15.49609583,-80.491
     73.83640698,15.49608216,-80.289
     73.83638654,15.49605911,-80.851
     73.83637088,15.49604000,-81.229
     73.83636158,15.49602442,-80.702
     73.83635093,15.49601072,-80.647
     73.83634693,15.49600176,-81.128
     73.83634283,15.49600164,-80.932
     73.83634078,15.49600313,-81.833
     73.83634082,15.49600531,-83.099
     73.83634072,15.49601039,-84.449
     73.83634144,15.49602053,-85.137
     73.83634249,15.49602707,-85.087
     73.83634363,15.49603150,-85.913
     73.83634335,15.49603433,-87.168
     73.83634447,15.49603350,-86.900
     73.83634727,15.49603242,-88.038
     73.83634758,15.49603022,-88.080
     73.83634235,15.49602345,-87.432
     73.83632980,15.49601097,-87.250
     73.83630943,15.49599587,-87.011
     73.83627953,15.49596720,-85.787
     73.83625333,15.49593797,-86.966
     73.83622760,15.49591202,-86.504
     73.83620185,15.49588490,-86.548
     73.83617931,15.49586206,-86.332
     73.83616191,15.49584434,-84.982
     73.83614911,15.49583139,-83.563
     73.83613715,15.49581897,-83.019
     73.83612690,15.49580709,-83.193
     73.83611723,15.49579329,-83.155
     73.83610701,15.49577873,-83.000
     73.83609745,15.49575591,-81.811
     73.83609439,15.49572043,-81.528
     73.83610152,15.49568377,-80.649
     73.83611755,15.49565139,-80.554
     73.83613851,15.49562152,-80.477
     73.83616004,15.49558202,-80.938
     73.83617786,15.49553978,-79.274
     73.83618947,15.49550741,-78.934
     73.83619991,15.49548624,-78.725
     73.83620556,15.49547228,-78.867
     73.83620836,15.49545616,-78.380
     73.83621536,15.49543763,-76.794
     73.83622837,15.49541528,-77.609
     73.83624123,15.49538823,-77.637
     73.83625139,15.49535236,-77.485
     73.83626245,15.49531165,-77.528
     73.83627443,15.49527245,-77.586
     73.83629868,15.49519705,-77.648
     73.83634233,15.49510750,-77.204
     73.83638501,15.49506024,-76.579
     73.83641408,15.49501853,-77.563
     73.83644994,15.49497609,-74.497
     73.83647540,15.49494501,-74.450
     73.83649983,15.49491526,-74.417
     73.83648731,15.49492365,-73.947
     73.83648924,15.49490125,-72.025
     73.83650013,15.49488347,-72.325
     73.83652397,15.49484040,-71.665
     73.83654289,15.49481318,-71.313
     73.83656477,15.49478701,-71.258
     73.83657047,15.49474243,-67.892
     73.83659382,15.49473103,-68.188
     73.83661683,15.49471838,-67.801
     73.83663726,15.49471213,-68.882
     73.83665360,15.49471060,-67.762
     73.83667522,15.49470640,-68.283
     73.83670164,15.49471223,-69.742
     73.83672448,15.49473346,-69.713
     73.83674522,15.49475628,-69.758
     73.83677358,15.49478128,-68.419
     73.83680396,15.49480196,-68.381
     73.83683873,15.49482021,-69.719
     73.83687461,15.49483087,-69.606
     73.83691034,15.49483207,-68.843
     73.83694559,15.49482904,-67.448
     73.83698084,15.49482609,-70.807
     73.83701829,15.49482739,-70.551
     73.83705542,15.49483279,-70.536
     73.83708914,15.49484073,-72.803
     73.83711787,15.49485591,-73.415
     73.83714122,15.49487057,-73.568
     73.83716275,15.49488244,-74.940
     73.83718498,15.49489093,-75.054
     73.83720726,15.49489573,-74.759
     73.83722581,15.49489763,-74.430
     73.83724111,15.49489763,-74.339
     73.83725555,15.49489479,-74.992
     73.83726548,15.49488862,-73.533
     73.83727219,15.49488225,-73.758
     73.83727471,15.49488105,-74.429
     73.83727142,15.49488937,-74.629
     73.83726963,15.49489382,-74.629
     73.83726861,15.49489730,-74.877
     73.83725887,15.49490391,-74.329
     73.83724479,15.49491321,-74.995
     73.83723583,15.49491984,-76.820
     73.83723049,15.49492471,-76.346
     73.83722627,15.49492962,-76.087
     73.83722084,15.49493471,-75.959
     73.83721497,15.49493781,-76.032
     73.83721050,15.49494104,-75.520
     73.83720568,15.49494648,-75.533
     73.83719881,15.49495342,-75.442
     73.83719209,15.49495911,-73.827
     73.83718592,15.49496292,-73.324
     73.83717944,15.49496662,-73.855
     73.83717272,15.49497036,-73.854
     73.83716904,15.49496911,-72.941
     73.83716628,15.49496529,-72.342
     73.83716279,15.49496231,-71.771
     73.83715934,15.49496012,-72.025
     73.83715623,15.49495948,-72.026
     73.83715345,15.49496042,-72.025
     73.83715052,15.49495943,-72.216
     73.83714876,15.49495816,-72.289
     73.83714723,15.49495715,-72.266
     73.83714564,15.49495722,-72.017
     73.83714529,15.49495784,-72.080
     73.83714556,15.49495825,-72.065
     73.83714494,15.49495916,-72.228
     73.83714433,15.49496023,-72.161
     73.83714360,15.49496105,-72.046
     73.83714237,15.49496220,-72.346
     73.83714137,15.49496327,-72.485
     73.83714107,15.49496327,-72.571
     73.83714088,15.49496330,-72.583
     73.83714077,15.49496337,-72.589
     73.83714071,15.49496338,-72.590
     73.83714077,15.49496340,-72.517
     73.83714080,15.49496341,-72.519
     73.83714081,15.49496342,-72.517
     73.83714190,15.49496378,-72.882
     73.83714244,15.49496396,-72.883
     73.83714271,15.49496404,-72.869
     73.83714285,15.49496408,-72.865
     73.83714293,15.49496411,-72.864
     73.83714297,15.49496412,-72.865
     73.83714299,15.49496412,-72.864
     73.83714301,15.49496412,-72.862
     73.83714303,15.49496412,-72.863
     73.83714311,15.49496399,-72.906
     73.83714357,15.49496371,-73.087
     73.83714397,15.49496349,-73.150
     73.83714422,15.49496329,-73.188
     73.83714424,15.49496310,-73.126
     73.83714422,15.49496319,-73.043
     73.83714418,15.49496329,-73.032
     73.83714418,15.49496336,-73.031
     73.83714412,15.49496358,-72.925
     73.83714411,15.49496370,-72.930
     73.83714410,15.49496379,-72.922
     73.83714409,15.49496391,-72.892
     73.83714414,15.49496384,-72.909
     73.83714414,15.49496398,-72.845
     73.83714411,15.49496387,-72.849
     73.83714407,15.49496389,-72.834
     73.83714406,15.49496365,-72.832
     73.83714406,15.49496358,-72.833
     73.83714405,15.49496358,-72.829
     73.83714405,15.49496357,-72.833
     73.83714406,15.49496340,-72.844
     73.83714405,15.49496331,-72.849
     73.83714403,15.49496332,-72.827
     73.83714403,15.49496324,-72.843
     73.83714402,15.49496301,-72.823
     73.83714409,15.49496302,-72.818
     73.83714410,15.49496230,-72.794
     73.83714389,15.49496153,-72.735
     73.83714361,15.49496082,-72.648
     73.83714350,15.49496038,-72.639
     73.83714338,15.49496025,-72.641
     73.83714321,15.49496005,-72.595
     73.83714311,15.49495988,-72.592
     73.83714305,15.49495974,-72.577
     73.83714299,15.49495967,-72.562
     73.83714300,15.49495955,-72.547
     73.83714305,15.49495938,-72.537
     73.83714315,15.49495919,-72.536
     73.83714326,15.49495881,-72.513
     73.83714359,15.49495877,-72.600
     73.83714374,15.49495873,-72.591
     73.83714377,15.49495864,-72.576
     73.83714386,15.49495847,-72.597
     73.83714399,15.49495810,-72.646
     73.83714401,15.49495793,-72.634
     73.83714403,15.49495780,-72.642
     73.83714403,15.49495780,-72.623
     73.83714402,15.49495777,-72.617
     73.83714533,15.49495843,-72.830
     73.83714417,15.49495959,-72.893
     73.83715348,15.49495110,-73.882
     73.83717554,15.49493429,-74.568
     73.83719734,15.49491788,-74.280
     73.83721736,15.49490512,-74.041
     73.83723163,15.49489527,-73.468
     73.83723887,15.49488910,-72.731
     73.83724065,15.49488621,-72.895
     73.83724096,15.49488240,-72.818
     73.83724178,15.49488303,-72.855
     73.83724565,15.49488422,-72.945
     73.83724985,15.49488737,-72.892
     73.83725111,15.49489175,-73.107
     73.83725026,15.49489703,-73.102
     73.83724749,15.49490222,-72.358
     73.83724218,15.49490762,-72.051
     73.83723468,15.49491107,-72.802
     73.83722588,15.49491366,-72.752
     73.83720982,15.49491989,-72.420
     73.83718753,15.49492683,-72.783
     73.83716847,15.49493148,-72.574
     73.83715167,15.49493468,-72.492
     73.83714047,15.49493749,-72.935
     73.83713298,15.49493987,-72.688
     73.83712725,15.49494199,-72.653
     73.83712145,15.49494349,-72.991
     73.83711621,15.49494466,-72.939
     73.83711172,15.49494589,-72.923
     73.83710874,15.49494648,-73.455
     73.83710656,15.49494761,-73.312
     73.83710508,15.49494954,-72.934
     73.83710276,15.49495031,-73.045
     73.83709990,15.49495092,-72.484
     73.83709880,15.49495059,-73.504
     73.83709935,15.49494981,-73.676
     73.83710289,15.49494678,-74.825
     73.83710376,15.49494608,-74.518
     73.83710391,15.49494368,-74.658
     73.83710391,15.49494301,-74.740
     73.83710347,15.49494128,-74.948
     73.83710248,15.49494130,-74.958
     73.83710177,15.49494112,-74.814
     73.83710177,15.49494009,-74.790
     73.83710203,15.49493867,-74.910
     73.83710141,15.49493920,-74.714
     73.83710060,15.49493812,-74.428
     73.83710016,15.49493696,-74.393
     73.83709989,15.49493629,-74.445
     73.83709971,15.49493601,-74.378
     73.83709968,15.49493557,-74.336
     73.83709973,15.49493560,-74.273
     73.83709995,15.49493559,-74.323
     73.83710008,15.49493537,-74.320
     73.83710022,15.49493520,-74.388
     73.83710027,15.49493510,-74.364
     73.83710031,15.49493484,-74.403
     73.83710014,15.49493467,-74.339
     73.83710006,15.49493443,-74.410
     73.83710000,15.49493440,-74.398
     73.83709991,15.49493475,-74.262
     73.83709997,15.49493468,-74.400
     73.83710008,15.49493456,-74.424
     73.83710007,15.49493476,-74.360
     73.83710008,15.49493466,-74.383
     73.83710013,15.49493457,-74.340
     73.83710023,15.49493432,-74.334
     73.83710025,15.49493399,-74.337
     73.83710023,15.49493388,-74.324
     73.83710021,15.49493385,-74.322
     73.83710021,15.49493383,-74.325
     73.83710021,15.49493381,-74.320
     73.83710020,15.49493376,-74.313
     73.83710024,15.49493366,-74.312
     73.83710024,15.49493361,-74.306
     73.83710023,15.49493359,-74.299
     73.83710021,15.49493358,-74.297
     73.83710016,15.49493336,-74.287
     73.83710014,15.49493322,-74.285
     73.83710011,15.49493315,-74.281
     73.83710010,15.49493312,-74.278
     73.83710006,15.49493311,-74.278
     73.83710004,15.49493312,-74.274
     73.83710001,15.49493313,-74.270
     73.83710000,15.49493314,-74.271
     73.83709997,15.49493318,-74.263
     73.83709994,15.49493320,-74.260
     73.83709988,15.49493298,-74.235
     73.83709983,15.49493286,-74.234
     73.83709979,15.49493265,-74.218
     73.83709976,15.49493255,-74.218
     73.83709974,15.49493248,-74.217
     73.83709972,15.49493246,-74.215
     73.83709969,15.49493238,-74.216
     73.83709967,15.49493234,-74.214
     73.83709966,15.49493230,-74.213
     73.83709966,15.49493228,-74.212
     73.83709966,15.49493226,-74.208
     73.83709963,15.49493217,-74.209
     73.83709963,15.49493213,-74.208
     73.83709957,15.49493201,-74.212
     73.83709953,15.49493195,-74.211
     73.83709952,15.49493175,-74.224
     73.83709949,15.49493165,-74.221
     73.83709948,15.49493133,-74.238
     73.83709949,15.49493084,-74.251
     73.83709949,15.49493058,-74.248
     73.83709948,15.49493044,-74.247
     73.83709947,15.49493012,-74.252
     73.83709945,15.49492994,-74.249
     73.83709944,15.49492965,-74.255
     73.83709942,15.49492950,-74.252
     73.83709940,15.49492935,-74.257
     73.83709938,15.49492927,-74.261
     73.83709935,15.49492921,-74.262
     73.83709933,15.49492917,-74.266
     73.83709930,15.49492914,-74.267
     73.83709919,15.49492907,-74.242
     73.83709919,15.49492884,-74.221
     73.83709916,15.49492872,-74.218
     73.83709912,15.49492864,-74.212
     73.83709915,15.49492837,-74.188
     73.83709915,15.49492820,-74.188
     73.83709913,15.49492810,-74.181
     73.83709910,15.49492805,-74.182
     73.83709908,15.49492802,-74.180
     73.83709905,15.49492800,-74.178
     73.83709901,15.49492797,-74.174
     73.83709898,15.49492793,-74.176
     73.83709896,15.49492791,-74.175
     73.83709893,15.49492789,-74.174
     73.83709890,15.49492786,-74.170
     73.83709886,15.49492786,-74.172
     73.83709885,15.49492756,-74.133
     73.83709883,15.49492740,-74.129
     73.83709881,15.49492732,-74.130
     73.83709879,15.49492726,-74.131
     73.83709876,15.49492721,-74.133
     73.83709873,15.49492716,-74.133
     73.83709871,15.49492715,-74.138
     73.83709869,15.49492713,-74.140
     73.83709866,15.49492714,-74.139
     73.83709864,15.49492714,-74.137
     73.83709862,15.49492714,-74.143
     73.83709860,15.49492714,-74.143
     73.83709864,15.49492694,-74.120
     73.83709864,15.49492683,-74.123
     73.83709864,15.49492677,-74.119
     73.83709862,15.49492674,-74.120
     73.83709861,15.49492672,-74.123
     73.83709859,15.49492669,-74.129
     73.83709859,15.49492666,-74.135
     73.83709858,15.49492664,-74.138
     73.83709858,15.49492662,-74.137
     73.83709856,15.49492660,-74.144
     73.83709855,15.49492659,-74.145
     73.83709853,15.49492658,-74.148
     73.83709852,15.49492657,-74.147
     73.83709851,15.49492657,-74.147
     73.83709849,15.49492657,-74.149
     73.83709848,15.49492658,-74.152
     73.83709847,15.49492658,-74.158
     73.83709846,15.49492658,-74.163
     73.83709846,15.49492657,-74.165
     73.83709844,15.49492658,-74.164
     73.83709843,15.49492658,-74.164
     73.83709842,15.49492659,-74.170
     73.83709840,15.49492660,-74.174
     73.83709839,15.49492660,-74.177
     73.83709838,15.49492659,-74.180
     73.83709837,15.49492659,-74.183
     73.83709836,15.49492658,-74.192
     73.83709836,15.49492655,-74.197
     73.83709836,15.49492654,-74.199
     73.83709835,15.49492652,-74.205
     73.83709834,15.49492651,-74.210
     73.83709834,15.49492649,-74.213
     73.83709833,15.49492648,-74.218
     73.83709832,15.49492647,-74.223
     73.83709830,15.49492646,-74.229
     73.83709829,15.49492645,-74.233
     73.83709828,15.49492644,-74.238
     73.83709826,15.49492642,-74.243
     73.83709826,15.49492640,-74.247
     73.83709826,15.49492639,-74.249
     73.83709825,15.49492638,-74.255
     73.83709824,15.49492634,-74.262
     73.83709823,15.49492632,-74.261
     73.83709823,15.49492631,-74.263
     73.83709822,15.49492630,-74.265
     73.83709821,15.49492630,-74.269
     73.83709821,15.49492628,-74.273
     73.83709820,15.49492626,-74.275
    </coordinates>
   </LineString>
  </Placemark>

 </Document>
</kml>
 