<?xml version="1.0" encoding="UTF-8"?>
<!-- Created with BasicAirData GPS Logger for Android - ver. 3.3.0 -->
<!-- Track 2 = 1638 TrackPoints + 2 Placemarks -->
<kml xmlns="http://www.opengis.net/kml/2.2">
 <Document>
  <name>GPS Logger 20260925-174649</name>
  <description><![CDATA[Ponda-Old Goa
1638 Trackpoints + 2 Placemarks]]></description>
  <Style id="TrackStyle">
   <LineStyle>
    <color>ff0000ff</color>
    <width>3</width>
   </LineStyle>
   <PolyStyle>
    <color>7f0000ff</color>
   </PolyStyle>
   <BalloonStyle>
    <text><![CDATA[<p style="color:red;font-weight:bold">$[name]</p><p style="font-size:11px">$[description]</p><p style="font-size:7px">Track Stats based on: Total time | Time in Movement</p>]]></text>
   </BalloonStyle>
  </Style>
  <Style id="PlacemarkStyle">
   <IconStyle>
    <Icon><href>http://maps.google.com/mapfiles/kml/shapes/placemark_circle_highlight.png</href></Icon>
   </IconStyle>
  </Style>

  <Placemark id="1">
   <name>Bus destination reach from ponda to old goa</name>
   <styleUrl>#PlacemarkStyle</styleUrl>
   <Point>
    <altitudeMode>clampToGround</altitudeMode>
    <coordinates>74.00025576,15.39693270,-35.686</coordinates>
    <extrude>1</extrude>
   </Point>
  </Placemark>

  <Placemark id="2">
   <name>Ponda-old goa</name>
   <styleUrl>#PlacemarkStyle</styleUrl>
   <Point>
    <altitudeMode>clampToGround</altitudeMode>
    <coordinates>73.97673289,15.43773152,-61.943</coordinates>
    <extrude>1</extrude>
   </Point>
  </Placemark>

  <Placemark id="20260925-174649">
   <name>Track 20260925-174649</name>
   <description><![CDATA[<b>Ponda-Old Goa</b><br><br>Distance = 13.6 km<br>Duration = 27:19 | 25:01<br>Altitude Gap = 45 m<br>Max Speed = 65 km/h<br>Avg Speed = 30.0 | 32.8 km/h<br>Direction = NW <br><br><i>1638 Trackpoints</i>]]></description>
   <styleUrl>#TrackStyle</styleUrl>
   <LineString>
    <extrude>0</extrude>
    <tessellate>0</tessellate>
    <altitudeMode>clampToGround</altitudeMode>
    <coordinates>
     73.97777158,15.43693279,-50.673
     73.97773848,15.43693564,-52.026
     73.97770154,15.43692685,-50.893
     73.97765661,15.43692899,-49.828
     73.97761296,15.43693382,-49.215
     73.97755865,15.43693517,-51.389
     73.97750852,15.43691053,-50.601
     73.97745732,15.43689575,-52.229
     73.97740336,15.43689451,-54.252
     73.97735024,15.43689350,-54.356
     73.97730933,15.43689988,-53.627
     73.97727402,15.43690617,-54.436
     73.97724800,15.43690309,-55.622
     73.97722176,15.43690651,-56.814
     73.97720356,15.43691563,-57.059
     73.97718400,15.43691506,-55.823
     73.97717741,15.43692144,-56.360
     73.97718255,15.43692200,-56.046
     73.97718081,15.43692426,-56.454
     73.97717985,15.43692515,-56.143
     73.97717984,15.43692516,-56.143
     73.97715958,15.43694331,-55.965
     73.97714386,15.43695965,-55.941
     73.97712547,15.43697875,-55.859
     73.97710486,15.43700311,-56.314
     73.97708329,15.43702762,-56.299
     73.97706270,15.43706495,-56.333
     73.97704362,15.43710896,-55.808
     73.97702729,15.43715076,-56.614
     73.97701124,15.43719248,-58.068
     73.97699100,15.43722851,-57.944
     73.97695863,15.43727773,-58.426
     73.97691498,15.43731694,-58.173
     73.97688402,15.43736028,-58.788
     73.97685866,15.43741160,-59.656
     73.97681016,15.43747555,-61.052
     73.97679474,15.43755391,-61.395
     73.97676789,15.43760467,-61.301
     73.97674566,15.43767058,-61.994
     73.97673289,15.43773152,-61.943
     73.97671173,15.43777222,-61.486
     73.97671155,15.43781604,-61.002
     73.97669202,15.43786531,-60.452
     73.97667047,15.43793518,-60.007
     73.97664623,15.43801339,-61.441
     73.97662246,15.43808878,-62.908
     73.97659120,15.43814991,-63.725
     73.97657136,15.43820759,-65.155
     73.97654071,15.43827519,-65.036
     73.97649988,15.43832243,-65.068
     73.97641579,15.43839099,-67.105
     73.97636019,15.43844837,-66.714
     73.97629574,15.43853021,-68.790
     73.97622980,15.43859376,-66.969
     73.97616983,15.43865618,-67.611
     73.97612771,15.43871697,-67.886
     73.97606622,15.43880993,-67.980
     73.97601887,15.43888193,-68.182
     73.97596884,15.43894050,-68.791
     73.97593029,15.43901252,-68.004
     73.97587811,15.43907641,-68.060
     73.97584061,15.43913643,-67.799
     73.97582041,15.43918337,-66.828
     73.97582756,15.43918981,-65.573
     73.97582658,15.43919409,-65.501
     73.97582806,15.43920642,-65.092
     73.97582350,15.43921199,-64.117
     73.97582761,15.43921439,-64.547
     73.97582749,15.43921982,-64.515
     73.97582629,15.43921666,-64.099
     73.97582697,15.43921990,-64.258
     73.97582898,15.43922248,-64.433
     73.97582447,15.43922734,-64.536
     73.97582238,15.43923089,-64.836
     73.97582160,15.43923194,-64.952
     73.97582105,15.43923444,-64.946
     73.97582256,15.43923764,-64.896
     73.97582304,15.43923728,-64.618
     73.97582306,15.43923778,-64.624
     73.97582316,15.43923838,-64.597
     73.97582365,15.43923819,-64.616
     73.97582543,15.43923802,-64.343
     73.97582683,15.43923736,-64.299
     73.97583230,15.43924220,-64.171
     73.97582889,15.43925105,-63.550
     73.97581454,15.43926350,-63.307
     73.97579375,15.43929248,-62.900
     73.97578736,15.43933177,-62.253
     73.97575851,15.43936113,-63.627
     73.97573290,15.43940307,-64.076
     73.97569431,15.43944181,-64.805
     73.97566025,15.43949040,-65.639
     73.97561992,15.43953264,-66.057
     73.97558938,15.43958017,-64.295
     73.97555342,15.43962794,-64.442
     73.97552518,15.43967295,-64.234
     73.97550436,15.43971340,-64.498
     73.97548615,15.43974883,-65.438
     73.97546366,15.43978442,-65.189
     73.97543624,15.43982713,-65.144
     73.97540177,15.43988034,-65.160
     73.97536633,15.43993340,-65.266
     73.97533207,15.43998897,-64.643
     73.97529362,15.44003588,-64.848
     73.97525894,15.44009579,-64.232
     73.97522854,15.44014903,-64.482
     73.97519181,15.44019894,-64.300
     73.97517881,15.44023627,-64.085
     73.97516073,15.44028333,-64.215
     73.97514681,15.44032828,-63.459
     73.97511792,15.44036296,-62.842
     73.97509376,15.44041411,-63.088
     73.97506705,15.44046342,-63.196
     73.97503954,15.44049490,-62.972
     73.97500953,15.44053440,-63.127
     73.97498434,15.44056135,-63.171
     73.97496963,15.44058088,-63.331
     73.97495507,15.44059981,-63.200
     73.97495570,15.44061372,-62.944
     73.97494151,15.44062813,-63.080
     73.97496791,15.44064328,-62.973
     73.97495865,15.44065816,-62.819
     73.97495146,15.44068348,-63.142
     73.97494830,15.44070348,-63.088
     73.97492829,15.44074340,-63.932
     73.97490644,15.44078347,-64.411
     73.97488679,15.44082148,-64.123
     73.97482343,15.44090203,-65.297
     73.97478365,15.44094931,-65.168
     73.97474972,15.44099186,-64.905
     73.97471431,15.44103761,-64.714
     73.97464546,15.44107291,-63.704
     73.97460301,15.44111008,-62.239
     73.97457310,15.44114771,-61.932
     73.97453240,15.44119806,-61.395
     73.97450158,15.44122810,-61.890
     73.97446770,15.44127578,-61.669
     73.97441737,15.44132526,-61.180
     73.97437169,15.44136714,-60.825
     73.97434303,15.44138668,-61.105
     73.97429968,15.44142097,-60.291
     73.97426867,15.44144770,-60.449
     73.97424812,15.44145872,-60.446
     73.97424099,15.44147957,-59.875
     73.97423255,15.44151417,-58.946
     73.97426043,15.44147331,-58.970
     73.97426446,15.44147657,-59.569
     73.97426658,15.44148114,-59.806
     73.97426479,15.44148741,-59.937
     73.97426266,15.44148974,-59.658
     73.97426005,15.44149388,-59.375
     73.97425815,15.44149447,-59.739
     73.97425168,15.44149967,-59.305
     73.97424720,15.44149863,-59.116
     73.97424545,15.44150200,-59.022
     73.97424414,15.44151077,-58.928
     73.97424138,15.44150730,-58.933
     73.97424226,15.44150801,-58.985
     73.97424193,15.44150691,-59.031
     73.97424226,15.44149892,-58.631
     73.97424616,15.44149503,-58.275
     73.97424614,15.44149584,-58.308
     73.97424704,15.44149229,-57.960
     73.97424606,15.44149220,-57.906
     73.97424746,15.44149161,-57.827
     73.97424744,15.44149265,-57.924
     73.97424594,15.44149425,-58.071
     73.97424450,15.44149363,-58.104
     73.97424494,15.44149360,-58.126
     73.97424533,15.44149336,-58.114
     73.97424561,15.44149291,-58.087
     73.97424617,15.44149153,-57.678
     73.97424476,15.44148854,-58.134
     73.97424462,15.44148866,-58.135
     73.97424320,15.44149221,-58.417
     73.97424229,15.44148948,-58.530
     73.97424228,15.44149115,-58.768
     73.97424157,15.44149533,-59.128
     73.97424159,15.44149575,-59.421
     73.97424157,15.44149597,-59.480
     73.97424101,15.44149755,-59.522
     73.97424109,15.44149707,-59.496
     73.97424114,15.44149617,-59.580
     73.97424158,15.44149639,-59.477
     73.97424157,15.44149648,-59.463
     73.97424118,15.44149717,-59.625
     73.97424121,15.44149721,-59.616
     73.97423360,15.44149647,-59.906
     73.97423296,15.44149173,-59.419
     73.97423195,15.44149253,-59.211
     73.97422770,15.44149531,-59.248
     73.97422077,15.44149744,-59.104
     73.97421753,15.44149823,-59.428
     73.97421692,15.44149800,-60.109
     73.97421576,15.44149942,-60.400
     73.97421526,15.44149747,-61.005
     73.97421389,15.44150137,-61.193
     73.97420986,15.44150341,-61.851
     73.97420820,15.44150415,-61.825
     73.97420731,15.44150191,-62.372
     73.97420638,15.44150074,-62.522
     73.97420758,15.44150067,-62.627
     73.97420020,15.44151834,-62.499
     73.97418855,15.44154217,-61.901
     73.97417485,15.44156162,-63.119
     73.97415782,15.44158695,-62.586
     73.97413231,15.44162026,-62.176
     73.97410379,15.44165719,-62.922
     73.97405506,15.44170311,-63.631
     73.97401476,15.44174647,-64.147
     73.97398472,15.44178968,-62.508
     73.97394697,15.44184351,-62.487
     73.97392696,15.44187074,-63.171
     73.97389514,15.44191305,-62.441
     73.97386976,15.44195886,-62.826
     73.97383022,15.44202921,-62.889
     73.97378108,15.44210407,-62.818
     73.97372920,15.44216912,-62.739
     73.97365289,15.44225387,-63.418
     73.97362425,15.44232835,-63.009
     73.97358580,15.44241064,-61.072
     73.97351231,15.44247453,-59.451
     73.97347692,15.44253836,-60.617
     73.97342581,15.44261139,-60.024
     73.97337508,15.44270200,-58.870
     73.97332186,15.44277415,-58.401
     73.97326045,15.44285081,-59.037
     73.97319856,15.44290976,-58.579
     73.97315584,15.44299417,-57.826
     73.97309617,15.44306884,-58.196
     73.97304452,15.44313981,-57.238
     73.97298253,15.44321426,-56.168
     73.97291965,15.44326597,-56.289
     73.97285848,15.44332945,-56.780
     73.97279997,15.44339364,-56.541
     73.97273770,15.44347448,-56.412
     73.97269730,15.44352947,-55.346
     73.97265735,15.44358964,-54.916
     73.97261575,15.44364376,-54.522
     73.97257285,15.44369765,-53.786
     73.97252895,15.44375937,-52.514
     73.97247982,15.44381117,-51.910
     73.97242319,15.44386160,-51.721
     73.97237943,15.44392108,-51.364
     73.97230951,15.44398862,-51.122
     73.97226093,15.44406181,-50.659
     73.97220431,15.44413016,-51.873
     73.97214315,15.44421192,-50.945
     73.97208270,15.44428834,-52.415
     73.97201829,15.44436390,-52.904
     73.97195752,15.44444243,-54.013
     73.97188951,15.44452752,-53.713
     73.97182014,15.44460518,-54.046
     73.97174612,15.44464328,-56.082
     73.97168659,15.44473240,-56.297
     73.97162216,15.44481352,-56.754
     73.97155142,15.44488657,-56.324
     73.97148272,15.44497499,-56.114
     73.97141146,15.44504963,-57.190
     73.97134522,15.44514221,-57.937
     73.97127373,15.44523624,-56.556
     73.97120028,15.44532016,-56.793
     73.97113810,15.44540348,-56.203
     73.97107095,15.44547022,-56.360
     73.97102474,15.44554001,-56.239
     73.97095906,15.44562609,-55.756
     73.97095697,15.44564299,-56.453
     73.97091817,15.44567489,-54.975
     73.97090124,15.44570234,-54.680
     73.97089129,15.44570264,-55.032
     73.97086835,15.44571433,-55.281
     73.97085880,15.44573305,-55.190
     73.97084330,15.44576150,-54.808
     73.97082633,15.44578457,-53.983
     73.97080546,15.44580054,-54.052
     73.97079217,15.44583328,-53.944
     73.97075494,15.44588548,-53.827
     73.97072621,15.44591426,-53.532
     73.97068948,15.44595151,-54.236
     73.97065889,15.44599512,-53.832
     73.97061219,15.44605187,-53.535
     73.97056897,15.44610865,-52.493
     73.97050753,15.44617184,-52.136
     73.97045920,15.44621836,-53.335
     73.97042098,15.44626848,-53.224
     73.97035918,15.44632673,-52.535
     73.97034505,15.44638405,-52.578
     73.97030471,15.44641344,-53.404
     73.97029198,15.44644930,-52.384
     73.97026248,15.44647516,-51.897
     73.97022559,15.44651069,-51.301
     73.97020566,15.44652749,-51.351
     73.97017842,15.44656820,-52.284
     73.97012215,15.44660401,-51.967
     73.97010321,15.44660414,-51.758
     73.97008366,15.44662907,-52.628
     73.97010795,15.44662192,-53.192
     73.97009972,15.44661485,-53.373
     73.97009508,15.44661922,-53.893
     73.97009030,15.44663493,-53.671
     73.97007652,15.44665609,-54.354
     73.97004739,15.44668745,-55.425
     73.97001905,15.44672229,-55.576
     73.96999240,15.44675914,-56.434
     73.96996383,15.44679610,-56.535
     73.96993984,15.44682954,-56.547
     73.96992152,15.44685683,-56.666
     73.96990710,15.44687872,-56.624
     73.96989385,15.44689886,-56.401
     73.96987923,15.44692221,-57.170
     73.96985961,15.44694645,-57.515
     73.96983572,15.44698267,-56.987
     73.96977908,15.44705633,-56.540
     73.96973180,15.44712009,-56.210
     73.96970397,15.44717617,-56.735
     73.96967514,15.44724386,-56.873
     73.96962427,15.44732962,-55.327
     73.96958095,15.44741554,-53.679
     73.96951627,15.44748133,-53.726
     73.96945194,15.44754722,-56.152
     73.96940820,15.44761434,-55.742
     73.96935609,15.44768315,-54.656
     73.96928412,15.44775887,-54.052
     73.96921541,15.44786286,-54.829
     73.96914441,15.44795059,-54.868
     73.96906155,15.44804854,-55.804
     73.96899714,15.44812651,-54.668
     73.96892374,15.44823822,-55.215
     73.96885241,15.44833403,-56.048
     73.96879699,15.44841324,-57.877
     73.96873241,15.44849438,-57.779
     73.96863057,15.44860507,-58.133
     73.96858330,15.44867653,-59.761
     73.96851841,15.44875609,-59.598
     73.96845028,15.44885210,-60.716
     73.96839286,15.44895233,-60.383
     73.96832882,15.44903828,-60.354
     73.96826125,15.44912975,-60.484
     73.96819103,15.44921949,-60.944
     73.96812897,15.44930952,-61.040
     73.96805964,15.44938772,-61.032
     73.96799721,15.44947682,-61.647
     73.96793894,15.44954341,-61.002
     73.96787621,15.44960604,-60.419
     73.96780133,15.44970792,-60.701
     73.96773386,15.44979704,-61.889
     73.96766007,15.44989943,-61.775
     73.96760590,15.44996214,-62.043
     73.96754749,15.45004347,-62.902
     73.96748572,15.45013360,-64.033
     73.96740860,15.45022529,-63.560
     73.96732552,15.45031858,-64.889
     73.96724364,15.45041632,-64.430
     73.96714705,15.45050613,-63.915
     73.96705049,15.45059341,-63.957
     73.96695050,15.45067053,-64.383
     73.96683592,15.45074158,-64.157
     73.96671681,15.45082841,-64.070
     73.96659425,15.45090243,-63.354
     73.96648445,15.45098570,-63.679
     73.96637231,15.45107156,-63.779
     73.96627028,15.45114232,-62.694
     73.96616695,15.45121778,-61.576
     73.96607458,15.45129686,-60.752
     73.96598720,15.45138064,-61.066
     73.96591108,15.45144801,-60.587
     73.96586150,15.45152705,-59.791
     73.96581124,15.45162269,-59.433
     73.96577281,15.45170765,-59.574
     73.96572279,15.45180108,-59.547
     73.96569626,15.45188807,-59.197
     73.96567984,15.45198201,-59.147
     73.96568517,15.45205829,-59.822
     73.96568975,15.45211692,-61.135
     73.96568914,15.45220595,-60.472
     73.96568637,15.45229724,-59.471
     73.96568860,15.45239263,-60.163
     73.96568989,15.45245326,-58.874
     73.96569157,15.45250439,-58.171
     73.96568836,15.45258984,-57.898
     73.96569293,15.45266143,-57.629
     73.96569002,15.45275271,-56.390
     73.96568969,15.45280592,-56.321
     73.96569455,15.45286868,-56.053
     73.96567411,15.45292520,-55.820
     73.96567486,15.45298619,-56.372
     73.96566746,15.45304755,-56.246
     73.96565875,15.45310569,-55.304
     73.96564825,15.45315848,-55.118
     73.96566130,15.45321900,-54.483
     73.96567140,15.45328903,-53.857
     73.96569105,15.45334826,-52.114
     73.96571123,15.45341357,-51.369
     73.96573843,15.45348440,-49.028
     73.96572394,15.45354020,-47.803
     73.96572282,15.45359971,-47.959
     73.96569250,15.45366893,-48.292
     73.96572361,15.45374244,-47.294
     73.96575251,15.45381020,-47.041
     73.96576885,15.45386885,-48.611
     73.96579934,15.45391619,-48.208
     73.96582176,15.45397824,-49.797
     73.96585955,15.45404387,-50.441
     73.96590061,15.45408707,-49.070
     73.96592463,15.45413325,-49.050
     73.96596534,15.45418728,-47.582
     73.96600487,15.45423110,-46.953
     73.96603755,15.45428352,-46.881
     73.96606733,15.45433012,-46.364
     73.96611556,15.45436650,-44.664
     73.96613082,15.45440792,-43.835
     73.96617273,15.45444784,-42.729
     73.96620063,15.45451297,-43.007
     73.96622803,15.45455549,-40.614
     73.96623784,15.45461988,-39.779
     73.96625078,15.45467177,-39.215
     73.96625157,15.45473393,-39.615
     73.96624726,15.45479033,-38.023
     73.96623154,15.45484508,-36.673
     73.96620496,15.45490470,-36.315
     73.96617773,15.45495735,-35.727
     73.96615120,15.45500710,-34.856
     73.96609881,15.45503609,-34.372
     73.96602770,15.45504482,-34.374
     73.96596554,15.45505214,-34.295
     73.96590133,15.45504025,-34.484
     73.96583238,15.45502000,-34.677
     73.96579024,15.45498309,-34.862
     73.96574652,15.45492863,-34.415
     73.96569107,15.45485778,-34.345
     73.96563502,15.45479359,-33.210
     73.96558444,15.45473026,-32.374
     73.96553927,15.45466404,-31.241
     73.96547297,15.45459853,-31.642
     73.96542834,15.45454572,-30.473
     73.96537764,15.45448685,-28.718
     73.96532004,15.45442844,-27.056
     73.96525517,15.45437403,-25.570
     73.96519088,15.45432319,-24.875
     73.96511611,15.45426921,-24.242
     73.96503517,15.45422170,-23.068
     73.96495055,15.45418086,-22.835
     73.96486012,15.45413853,-22.295
     73.96476954,15.45411135,-20.904
     73.96467554,15.45410533,-20.663
     73.96458245,15.45411038,-19.155
     73.96449348,15.45413237,-18.384
     73.96439644,15.45417110,-17.984
     73.96431248,15.45421894,-16.745
     73.96422987,15.45427102,-17.611
     73.96416899,15.45434295,-16.576
     73.96410819,15.45442690,-16.148
     73.96405704,15.45451591,-15.439
     73.96401320,15.45459686,-15.431
     73.96397499,15.45469451,-14.318
     73.96394972,15.45478757,-14.411
     73.96393426,15.45488482,-13.241
     73.96392560,15.45498140,-12.217
     73.96392067,15.45508740,-11.689
     73.96392623,15.45518349,-11.003
     73.96393528,15.45528100,-10.823
     73.96395214,15.45537498,-10.720
     73.96397902,15.45545198,-9.838
     73.96399732,15.45554984,-9.705
     73.96401867,15.45563362,-9.434
     73.96404239,15.45571937,-8.959
     73.96407244,15.45582251,-8.697
     73.96410237,15.45591937,-9.074
     73.96412498,15.45601422,-8.156
     73.96416207,15.45612028,-8.501
     73.96420600,15.45621789,-7.470
     73.96424166,15.45631245,-5.458
     73.96428984,15.45641184,-4.796
     73.96433816,15.45651343,-4.008
     73.96437952,15.45660652,-2.145
     73.96440977,15.45670103,-2.135
     73.96444008,15.45678647,-2.411
     73.96446403,15.45686876,-2.375
     73.96448041,15.45693638,-2.604
     73.96449293,15.45699375,-1.839
     73.96450004,15.45703781,-1.712
     73.96450570,15.45707819,-1.910
     73.96450782,15.45711496,-1.871
     73.96450929,15.45714102,-1.376
     73.96451138,15.45716240,-1.283
     73.96451465,15.45716683,-0.538
     73.96451163,15.45717462,-0.037
     73.96450936,15.45717266,0.367
     73.96450917,15.45717278,0.270
     73.96450845,15.45717414,0.508
     73.96450842,15.45717478,0.402
     73.96450690,15.45717516,0.451
     73.96450636,15.45717514,0.314
     73.96450588,15.45717729,0.339
     73.96450717,15.45718574,1.182
     73.96451088,15.45720903,1.389
     73.96451110,15.45723957,1.885
     73.96451475,15.45727898,1.568
     73.96451650,15.45732021,1.550
     73.96451585,15.45736387,1.015
     73.96451539,15.45742513,1.499
     73.96451102,15.45748502,0.992
     73.96451033,15.45754193,1.114
     73.96449531,15.45761225,1.795
     73.96446911,15.45768295,2.320
     73.96444493,15.45774250,2.360
     73.96442311,15.45781606,1.389
     73.96439009,15.45789084,0.827
     73.96435896,15.45796128,0.923
     73.96432215,15.45803929,1.111
     73.96428725,15.45812082,0.647
     73.96424575,15.45820429,1.035
     73.96421466,15.45828677,1.495
     73.96419059,15.45838105,1.113
     73.96416860,15.45846532,-0.128
     73.96415147,15.45854982,-0.860
     73.96414256,15.45863133,-1.604
     73.96414363,15.45871512,-3.142
     73.96414767,15.45879482,-4.045
     73.96415587,15.45887655,-5.009
     73.96417059,15.45895550,-5.309
     73.96418124,15.45903967,-5.740
     73.96418017,15.45912614,-5.765
     73.96417643,15.45921823,-6.563
     73.96416338,15.45929927,-6.861
     73.96414212,15.45938658,-6.532
     73.96410818,15.45945488,-7.125
     73.96406529,15.45952526,-6.882
     73.96400426,15.45958726,-6.412
     73.96395257,15.45964951,-7.608
     73.96389676,15.45970975,-7.701
     73.96383314,15.45976427,-8.217
     73.96377435,15.45981618,-8.939
     73.96371434,15.45987128,-8.974
     73.96366064,15.45992701,-9.649
     73.96360615,15.45998143,-9.753
     73.96354891,15.46003974,-9.602
     73.96346728,15.46009947,-10.785
     73.96340399,15.46015051,-10.794
     73.96328967,15.46017018,-15.634
     73.96323688,15.46020270,-17.793
     73.96316767,15.46023241,-17.092
     73.96309515,15.46023255,-17.886
     73.96301508,15.46023170,-18.134
     73.96293313,15.46022914,-18.196
     73.96287030,15.46015154,-21.560
     73.96277587,15.46011159,-22.837
     73.96270956,15.46006377,-24.071
     73.96261884,15.46003162,-26.803
     73.96254137,15.45999505,-27.843
     73.96247443,15.45994723,-28.472
     73.96240920,15.45990507,-28.484
     73.96233944,15.45986352,-29.514
     73.96226910,15.45983354,-29.546
     73.96216904,15.45980889,-31.679
     73.96208050,15.45979283,-32.209
     73.96199088,15.45979312,-35.065
     73.96190696,15.45978885,-37.267
     73.96181782,15.45978695,-38.613
     73.96171110,15.45977444,-40.868
     73.96162523,15.45978053,-42.220
     73.96153649,15.45979239,-42.604
     73.96144696,15.45980757,-43.079
     73.96136008,15.45982367,-43.444
     73.96129261,15.45984464,-45.076
     73.96121142,15.45986611,-45.327
     73.96112338,15.45988836,-45.849
     73.96102898,15.45990994,-46.626
     73.96093725,15.45993376,-47.068
     73.96085436,15.45998263,-47.077
     73.96076865,15.46000134,-47.989
     73.96068028,15.46002329,-50.528
     73.96060107,15.46004727,-51.730
     73.96053739,15.46008820,-51.500
     73.96047708,15.46013696,-51.558
     73.96041832,15.46018454,-51.692
     73.96037669,15.46024716,-52.833
     73.96035179,15.46030233,-54.908
     73.96032516,15.46036988,-54.998
     73.96029595,15.46043738,-55.283
     73.96028352,15.46052962,-55.417
     73.96026238,15.46061177,-55.488
     73.96024708,15.46070776,-55.497
     73.96022465,15.46079137,-55.818
     73.96019997,15.46087696,-56.067
     73.96017199,15.46096318,-56.885
     73.96015001,15.46104931,-56.063
     73.96012889,15.46113224,-56.797
     73.96011107,15.46121174,-57.344
     73.96009637,15.46127742,-57.704
     73.96007467,15.46134081,-57.866
     73.96006562,15.46138937,-58.032
     73.96005263,15.46143997,-58.302
     73.96003929,15.46148587,-58.246
     73.96003510,15.46152283,-58.613
     73.96003415,15.46156912,-59.342
     73.96003045,15.46161047,-60.174
     73.96003229,15.46164804,-61.558
     73.96002782,15.46167851,-61.677
     73.96002789,15.46170942,-61.365
     73.96003060,15.46172564,-60.916
     73.96003713,15.46173079,-61.661
     73.96003358,15.46173696,-60.854
     73.96003237,15.46173710,-60.674
     73.96003065,15.46173579,-60.599
     73.96002914,15.46173638,-60.451
     73.96002753,15.46173660,-60.204
     73.96002609,15.46173649,-60.248
     73.96002206,15.46173761,-59.816
     73.96002223,15.46173689,-60.055
     73.96002319,15.46173534,-60.056
     73.96002338,15.46173574,-59.701
     73.96002234,15.46173495,-59.780
     73.96002197,15.46173562,-59.758
     73.96002220,15.46173573,-59.898
     73.96002194,15.46173580,-59.827
     73.96002145,15.46173564,-59.655
     73.96002094,15.46173600,-59.508
     73.96002075,15.46173613,-59.307
     73.96002242,15.46174328,-59.070
     73.96002298,15.46175323,-58.936
     73.96002815,15.46176633,-59.107
     73.96003574,15.46178410,-58.789
     73.96004822,15.46180819,-59.006
     73.96006210,15.46184063,-57.992
     73.96007805,15.46187750,-58.140
     73.96009521,15.46191791,-58.102
     73.96011775,15.46197721,-57.649
     73.96014393,15.46202922,-58.632
     73.96017431,15.46209496,-58.752
     73.96020676,15.46215917,-59.768
     73.96023835,15.46223102,-60.823
     73.96027393,15.46230195,-62.482
     73.96031233,15.46237759,-63.083
     73.96034169,15.46244795,-62.047
     73.96038672,15.46251562,-61.638
     73.96042584,15.46259316,-61.085
     73.96047168,15.46267119,-61.286
     73.96051628,15.46276566,-61.543
     73.96055429,15.46285421,-61.510
     73.96059890,15.46293876,-61.120
     73.96063829,15.46303234,-60.926
     73.96068519,15.46312109,-61.726
     73.96073459,15.46321559,-64.160
     73.96078191,15.46330920,-64.254
     73.96083724,15.46339704,-64.691
     73.96089256,15.46349792,-64.811
     73.96094695,15.46359284,-64.852
     73.96100495,15.46368024,-63.999
     73.96106590,15.46377229,-63.725
     73.96115246,15.46390214,-64.870
     73.96123389,15.46401309,-64.148
     73.96131781,15.46412181,-63.902
     73.96139966,15.46422763,-63.380
     73.96147889,15.46433662,-63.696
     73.96155794,15.46444969,-64.065
     73.96164071,15.46455624,-64.361
     73.96171768,15.46467385,-64.257
     73.96179895,15.46478845,-64.606
     73.96187303,15.46490915,-64.679
     73.96194492,15.46503333,-64.865
     73.96202276,15.46514731,-64.511
     73.96209489,15.46526454,-64.230
     73.96216679,15.46537609,-65.027
     73.96222877,15.46549331,-65.138
     73.96228733,15.46561797,-65.783
     73.96233327,15.46574977,-65.849
     73.96237000,15.46587812,-66.115
     73.96239347,15.46600112,-65.798
     73.96240527,15.46613258,-65.434
     73.96241004,15.46625823,-65.536
     73.96240742,15.46638607,-66.003
     73.96240135,15.46651822,-65.560
     73.96239141,15.46664704,-65.681
     73.96238779,15.46677840,-65.855
     73.96237854,15.46691239,-66.690
     73.96237138,15.46704014,-66.495
     73.96235894,15.46717297,-66.519
     73.96235295,15.46731812,-66.075
     73.96234774,15.46745542,-67.063
     73.96234494,15.46758993,-66.765
     73.96233920,15.46772051,-66.917
     73.96233666,15.46784905,-66.705
     73.96233755,15.46797016,-67.348
     73.96233670,15.46808418,-67.652
     73.96233442,15.46821314,-67.353
     73.96233359,15.46832517,-67.856
     73.96233456,15.46844658,-66.707
     73.96233269,15.46856030,-66.870
     73.96233136,15.46867200,-66.447
     73.96232773,15.46878038,-64.811
     73.96232263,15.46889244,-64.139
     73.96232576,15.46900197,-63.676
     73.96233231,15.46910882,-62.860
     73.96234107,15.46921284,-63.659
     73.96235914,15.46931637,-63.516
     73.96237969,15.46942955,-63.138
     73.96239809,15.46953220,-62.890
     73.96242338,15.46963905,-62.502
     73.96244691,15.46973080,-62.249
     73.96247353,15.46982406,-62.426
     73.96250327,15.46991703,-62.235
     73.96254266,15.47002196,-62.189
     73.96258570,15.47013351,-63.180
     73.96263827,15.47023858,-62.771
     73.96269193,15.47033700,-61.869
     73.96275008,15.47043534,-61.491
     73.96280737,15.47053038,-60.559
     73.96286498,15.47062628,-59.971
     73.96291409,15.47072977,-60.594
     73.96295573,15.47083070,-60.699
     73.96299270,15.47094068,-61.324
     73.96302893,15.47106253,-62.373
     73.96306138,15.47117660,-62.916
     73.96310056,15.47128842,-62.597
     73.96313335,15.47139095,-61.855
     73.96317036,15.47149838,-62.244
     73.96320958,15.47160081,-61.158
     73.96324775,15.47169755,-60.068
     73.96328975,15.47178410,-60.141
     73.96333554,15.47187934,-60.147
     73.96337800,15.47197110,-60.432
     73.96342050,15.47206511,-60.321
     73.96346425,15.47216290,-60.539
     73.96350918,15.47226423,-60.925
     73.96355501,15.47236595,-61.084
     73.96359299,15.47246586,-60.478
     73.96363819,15.47256141,-60.622
     73.96368679,15.47265841,-61.184
     73.96373286,15.47275339,-61.377
     73.96377948,15.47285254,-62.180
     73.96381769,15.47295903,-63.046
     73.96384729,15.47306387,-63.393
     73.96386837,15.47316921,-63.361
     73.96386393,15.47327859,-63.822
     73.96386804,15.47339581,-63.540
     73.96387561,15.47350893,-62.896
     73.96387686,15.47362672,-62.555
     73.96388796,15.47372115,-63.172
     73.96389363,15.47381322,-61.460
     73.96389700,15.47390477,-61.835
     73.96388858,15.47398498,-61.445
     73.96389482,15.47406698,-61.242
     73.96390189,15.47412818,-62.503
     73.96388922,15.47419997,-63.029
     73.96387934,15.47422474,-62.915
     73.96389311,15.47428143,-61.794
     73.96388650,15.47434310,-62.430
     73.96388641,15.47439916,-61.499
     73.96389079,15.47441791,-62.186
     73.96388450,15.47444174,-62.158
     73.96389835,15.47449195,-61.431
     73.96388420,15.47451831,-62.183
     73.96388517,15.47456473,-62.607
     73.96389194,15.47462169,-63.136
     73.96389478,15.47466478,-62.868
     73.96390173,15.47471326,-63.463
     73.96390455,15.47474178,-62.172
     73.96391319,15.47476768,-61.796
     73.96391281,15.47476991,-62.400
     73.96391268,15.47476995,-62.704
     73.96391258,15.47477063,-63.111
     73.96391277,15.47477134,-63.359
     73.96391338,15.47477127,-63.591
     73.96391375,15.47477164,-63.530
     73.96391519,15.47477476,-63.449
     73.96391617,15.47477747,-63.625
     73.96391535,15.47478273,-63.587
     73.96391330,15.47479493,-63.420
     73.96390733,15.47481471,-62.833
     73.96389497,15.47484089,-62.761
     73.96388167,15.47487469,-61.745
     73.96387158,15.47491680,-62.240
     73.96386446,15.47496385,-62.693
     73.96388904,15.47506619,-61.279
     73.96387676,15.47513334,-60.961
     73.96384911,15.47518769,-61.763
     73.96382498,15.47525229,-60.514
     73.96379899,15.47530399,-60.850
     73.96377299,15.47535946,-61.037
     73.96374388,15.47540495,-61.146
     73.96371254,15.47546570,-61.133
     73.96367951,15.47552454,-61.337
     73.96363869,15.47558850,-61.455
     73.96360786,15.47563447,-61.793
     73.96357804,15.47567006,-61.293
     73.96354831,15.47573337,-61.495
     73.96350817,15.47579201,-62.824
     73.96347116,15.47591580,-63.206
     73.96342378,15.47599723,-64.028
     73.96336330,15.47609278,-64.744
     73.96333162,15.47616795,-65.306
     73.96329966,15.47624430,-65.214
     73.96328455,15.47632692,-64.558
     73.96325300,15.47639575,-64.684
     73.96322105,15.47646601,-63.882
     73.96318618,15.47652997,-63.701
     73.96315158,15.47657790,-62.821
     73.96311656,15.47663460,-61.873
     73.96307167,15.47668813,-61.593
     73.96301460,15.47675072,-61.341
     73.96295382,15.47681215,-61.603
     73.96288555,15.47689014,-61.417
     73.96282708,15.47695118,-61.199
     73.96276404,15.47702554,-59.754
     73.96269694,15.47708725,-58.463
     73.96262584,15.47715005,-59.144
     73.96256498,15.47722696,-59.705
     73.96250105,15.47730187,-59.881
     73.96243313,15.47739701,-60.578
     73.96237443,15.47751200,-59.485
     73.96231692,15.47760262,-59.210
     73.96227434,15.47768864,-57.936
     73.96223597,15.47776748,-58.031
     73.96219459,15.47784343,-58.298
     73.96214922,15.47791551,-58.423
     73.96210545,15.47800391,-57.989
     73.96205647,15.47809975,-59.059
     73.96201279,15.47817499,-59.141
     73.96198105,15.47825854,-58.509
     73.96192739,15.47836258,-59.735
     73.96188190,15.47845980,-59.812
     73.96182836,15.47854046,-59.492
     73.96176645,15.47862684,-60.069
     73.96169262,15.47870590,-60.546
     73.96162464,15.47879301,-60.480
     73.96155374,15.47888038,-60.718
     73.96150251,15.47898385,-60.641
     73.96143716,15.47907862,-61.076
     73.96135958,15.47917311,-61.292
     73.96129547,15.47928338,-61.583
     73.96122591,15.47938940,-60.800
     73.96115952,15.47949793,-60.121
     73.96108571,15.47959743,-60.501
     73.96101298,15.47969260,-60.654
     73.96094253,15.47978741,-61.513
     73.96087669,15.47988112,-61.871
     73.96081836,15.47997663,-62.067
     73.96076028,15.48007207,-61.725
     73.96070345,15.48017114,-61.747
     73.96064988,15.48026537,-62.062
     73.96060063,15.48036360,-62.302
     73.96055358,15.48046565,-61.686
     73.96050703,15.48055804,-62.319
     73.96046454,15.48066213,-62.443
     73.96042703,15.48075374,-60.544
     73.96037896,15.48084204,-58.510
     73.96034308,15.48092810,-57.389
     73.96030107,15.48100741,-58.138
     73.96026376,15.48108219,-57.951
     73.96022272,15.48115516,-58.215
     73.96018597,15.48122471,-57.901
     73.96014295,15.48129349,-58.332
     73.96010385,15.48136854,-58.282
     73.96006757,15.48144351,-58.079
     73.96002454,15.48152118,-58.700
     73.95997448,15.48159877,-59.751
     73.95991983,15.48167127,-59.534
     73.95985312,15.48175685,-61.719
     73.95980085,15.48185117,-62.865
     73.95974701,15.48193352,-62.664
     73.95968211,15.48203499,-63.861
     73.95961534,15.48213927,-63.033
     73.95955429,15.48223638,-62.852
     73.95949434,15.48233490,-62.308
     73.95944250,15.48241108,-63.935
     73.95938950,15.48249280,-64.554
     73.95932796,15.48257630,-64.850
     73.95926836,15.48266704,-66.218
     73.95921022,15.48277405,-66.964
     73.95916098,15.48288037,-66.394
     73.95914064,15.48297118,-67.036
     73.95916168,15.48310118,-66.674
     73.95921926,15.48322201,-68.468
     73.95918964,15.48330992,-68.483
     73.95919693,15.48335318,-69.133
     73.95918481,15.48339922,-68.351
     73.95916870,15.48347056,-67.788
     73.95912906,15.48351243,-66.799
     73.95910418,15.48354144,-66.473
     73.95906981,15.48361615,-68.248
     73.95904897,15.48363711,-69.364
     73.95903019,15.48370566,-70.160
     73.95899755,15.48378606,-70.361
     73.95898259,15.48389178,-69.505
     73.95895107,15.48399372,-70.283
     73.95892677,15.48411912,-70.836
     73.95889794,15.48423757,-72.728
     73.95886568,15.48434481,-72.329
     73.95885385,15.48444380,-70.443
     73.95884051,15.48453204,-68.395
     73.95882769,15.48463662,-68.560
     73.95881455,15.48474597,-69.545
     73.95879963,15.48484331,-70.003
     73.95878453,15.48494167,-69.970
     73.95876704,15.48504411,-69.881
     73.95875083,15.48514802,-69.921
     73.95872988,15.48525416,-69.249
     73.95871029,15.48535980,-68.551
     73.95869615,15.48544495,-67.912
     73.95867897,15.48551119,-68.186
     73.95866940,15.48558146,-67.822
     73.95866247,15.48564141,-67.305
     73.95865552,15.48570155,-66.768
     73.95865020,15.48575851,-66.664
     73.95864376,15.48581606,-66.245
     73.95863467,15.48586418,-67.061
     73.95862816,15.48592336,-66.845
     73.95861633,15.48598498,-66.856
     73.95860479,15.48605251,-67.083
     73.95858427,15.48612330,-65.995
     73.95857507,15.48618962,-65.280
     73.95856873,15.48625736,-65.496
     73.95854876,15.48633264,-65.946
     73.95853164,15.48641792,-65.923
     73.95851610,15.48650141,-65.477
     73.95850090,15.48658809,-64.888
     73.95848236,15.48667707,-64.762
     73.95846732,15.48676368,-64.471
     73.95845088,15.48685393,-64.018
     73.95843365,15.48693969,-64.494
     73.95842232,15.48702922,-64.442
     73.95840806,15.48710986,-63.678
     73.95839847,15.48719973,-63.800
     73.95836471,15.48729925,-63.341
     73.95834515,15.48739182,-63.409
     73.95831183,15.48750277,-63.432
     73.95828787,15.48761084,-63.536
     73.95827386,15.48771270,-63.226
     73.95825423,15.48781416,-63.613
     73.95825130,15.48792428,-63.819
     73.95823575,15.48802753,-63.770
     73.95821803,15.48813817,-63.654
     73.95819671,15.48823926,-63.032
     73.95818083,15.48835146,-62.621
     73.95815609,15.48846832,-62.848
     73.95815088,15.48858619,-61.817
     73.95813105,15.48869787,-61.626
     73.95809154,15.48881079,-61.921
     73.95807843,15.48891516,-62.610
     73.95805400,15.48902074,-62.377
     73.95801894,15.48913057,-62.582
     73.95798555,15.48923841,-61.887
     73.95793731,15.48932481,-61.327
     73.95790337,15.48942701,-60.984
     73.95785672,15.48953277,-60.234
     73.95779463,15.48961928,-60.641
     73.95772861,15.48971143,-60.687
     73.95767042,15.48981380,-60.516
     73.95760408,15.48989376,-59.283
     73.95754849,15.48997050,-58.710
     73.95750202,15.49001562,-57.901
     73.95746154,15.49005272,-57.065
     73.95742776,15.49007873,-57.420
     73.95740525,15.49009917,-57.169
     73.95739324,15.49010942,-56.900
     73.95738846,15.49011344,-56.796
     73.95738981,15.49011233,-56.657
     73.95738987,15.49011057,-56.568
     73.95739199,15.49011040,-56.795
     73.95739119,15.49010979,-57.009
     73.95738865,15.49010928,-57.131
     73.95738998,15.49010748,-56.991
     73.95739143,15.49010727,-57.340
     73.95739175,15.49010649,-57.248
     73.95739329,15.49010605,-57.068
     73.95739428,15.49010592,-56.995
     73.95739427,15.49010591,-56.996
     73.95739445,15.49010548,-56.911
     73.95739448,15.49010536,-56.866
     73.95737030,15.49011781,-57.208
     73.95735551,15.49012821,-57.259
     73.95731736,15.49015525,-57.428
     73.95728156,15.49019819,-55.999
     73.95724263,15.49021261,-56.542
     73.95720180,15.49024491,-57.325
     73.95717035,15.49025691,-57.066
     73.95713115,15.49028239,-57.602
     73.95706887,15.49032760,-58.669
     73.95700259,15.49036438,-59.320
     73.95694665,15.49038895,-59.416
     73.95687211,15.49040885,-58.823
     73.95678723,15.49043846,-58.344
     73.95671465,15.49045753,-58.433
     73.95664442,15.49047944,-58.583
     73.95655804,15.49052450,-60.905
     73.95648649,15.49055458,-60.050
     73.95639455,15.49057558,-59.683
     73.95630456,15.49060144,-60.092
     73.95621149,15.49062423,-60.047
     73.95611060,15.49065058,-60.231
     73.95600605,15.49067770,-59.706
     73.95590127,15.49070687,-59.577
     73.95579974,15.49073897,-59.521
     73.95568714,15.49076276,-58.893
     73.95557152,15.49078981,-59.174
     73.95545964,15.49081992,-59.406
     73.95534805,15.49084971,-59.149
     73.95523254,15.49088204,-59.365
     73.95511326,15.49091526,-59.463
     73.95499400,15.49095132,-59.255
     73.95487097,15.49098452,-59.155
     73.95474762,15.49101969,-59.291
     73.95462070,15.49105428,-59.680
     73.95449076,15.49108727,-59.902
     73.95435706,15.49111988,-60.027
     73.95422379,15.49115278,-60.112
     73.95408512,15.49117529,-60.610
     73.95395145,15.49120448,-61.153
     73.95381412,15.49122900,-61.652
     73.95367377,15.49125804,-61.612
     73.95352505,15.49130384,-61.778
     73.95337845,15.49134189,-61.816
     73.95322240,15.49137154,-62.518
     73.95306814,15.49140932,-63.457
     73.95291513,15.49145234,-63.688
     73.95276055,15.49151400,-61.501
     73.95261111,15.49155571,-62.084
     73.95246181,15.49159640,-62.525
     73.95231172,15.49162896,-62.774
     73.95216317,15.49166767,-63.135
     73.95201744,15.49169729,-64.248
     73.95187501,15.49173406,-64.412
     73.95172440,15.49179670,-62.959
     73.95157415,15.49183302,-62.976
     73.95142608,15.49186735,-63.493
     73.95128473,15.49190969,-63.960
     73.95113801,15.49194964,-64.383
     73.95099425,15.49199264,-63.904
     73.95083784,15.49203992,-64.331
     73.95069368,15.49207874,-64.837
     73.95054249,15.49211426,-66.374
     73.95039504,15.49216178,-66.792
     73.95024541,15.49220420,-68.344
     73.95011129,15.49224658,-68.485
     73.94996166,15.49228112,-68.839
     73.94981521,15.49231676,-68.518
     73.94967645,15.49235884,-68.881
     73.94953180,15.49239748,-68.917
     73.94939069,15.49244372,-68.857
     73.94925754,15.49248876,-68.576
     73.94911926,15.49251426,-67.970
     73.94898440,15.49254300,-68.234
     73.94884217,15.49256993,-68.124
     73.94870348,15.49259990,-68.776
     73.94856113,15.49262995,-68.908
     73.94842090,15.49266064,-69.014
     73.94827723,15.49269004,-69.072
     73.94813797,15.49272991,-69.010
     73.94800390,15.49275056,-69.548
     73.94784926,15.49279620,-70.298
     73.94772610,15.49281578,-70.928
     73.94760060,15.49284327,-69.983
     73.94746041,15.49287243,-71.078
     73.94732490,15.49289698,-71.029
     73.94718905,15.49291759,-70.420
     73.94705737,15.49292952,-71.445
     73.94691918,15.49293824,-71.536
     73.94677958,15.49294615,-71.211
     73.94663431,15.49294981,-71.096
     73.94649175,15.49295482,-71.062
     73.94634931,15.49295920,-71.016
     73.94620588,15.49296309,-71.496
     73.94605751,15.49297017,-71.580
     73.94589810,15.49297837,-71.236
     73.94574527,15.49298723,-70.983
     73.94560022,15.49298994,-70.554
     73.94546131,15.49299176,-70.509
     73.94532818,15.49299683,-70.247
     73.94520369,15.49300406,-70.036
     73.94507370,15.49301010,-69.802
     73.94494956,15.49303146,-69.819
     73.94483543,15.49304240,-68.306
     73.94471982,15.49305165,-68.049
     73.94461142,15.49306342,-68.011
     73.94454499,15.49304281,-67.659
     73.94447514,15.49304163,-67.633
     73.94443934,15.49304835,-66.301
     73.94442105,15.49305091,-66.394
     73.94442357,15.49304892,-65.851
     73.94440481,15.49306488,-65.565
     73.94438288,15.49307212,-65.270
     73.94434431,15.49307228,-65.198
     73.94429326,15.49307764,-65.747
     73.94423972,15.49308142,-66.121
     73.94417327,15.49307862,-66.650
     73.94409723,15.49307594,-66.261
     73.94401744,15.49307991,-66.448
     73.94392901,15.49308405,-66.134
     73.94383092,15.49308583,-66.031
     73.94372527,15.49308894,-65.981
     73.94361747,15.49309093,-66.421
     73.94350138,15.49309219,-66.049
     73.94339015,15.49309195,-66.096
     73.94326855,15.49309511,-66.210
     73.94314751,15.49308500,-67.783
     73.94302943,15.49308322,-68.234
     73.94290455,15.49307645,-68.209
     73.94277068,15.49307723,-68.065
     73.94263745,15.49307446,-68.385
     73.94249875,15.49307062,-68.408
     73.94235798,15.49306773,-68.452
     73.94221967,15.49307260,-69.306
     73.94208724,15.49308261,-69.765
     73.94193767,15.49309680,-70.191
     73.94177929,15.49313169,-69.534
     73.94163145,15.49315977,-69.477
     73.94148524,15.49318412,-69.504
     73.94133723,15.49321580,-69.405
     73.94119637,15.49325010,-68.710
     73.94106185,15.49329302,-69.056
     73.94091697,15.49333846,-69.202
     73.94076924,15.49338814,-69.354
     73.94062348,15.49344141,-69.322
     73.94047808,15.49349426,-69.243
     73.94033595,15.49355411,-69.130
     73.94019800,15.49361207,-68.557
     73.94005814,15.49366485,-68.635
     73.93991864,15.49372555,-69.502
     73.93977725,15.49377774,-69.271
     73.93963210,15.49384303,-68.426
     73.93948070,15.49388592,-68.388
     73.93934374,15.49393705,-67.721
     73.93920385,15.49399366,-67.326
     73.93905474,15.49404879,-67.476
     73.93890621,15.49410566,-67.796
     73.93875532,15.49416229,-67.487
     73.93860793,15.49422430,-66.930
     73.93845200,15.49427851,-65.898
     73.93829441,15.49433996,-65.603
     73.93813379,15.49439893,-65.572
     73.93797785,15.49445849,-65.704
     73.93782198,15.49452002,-65.575
     73.93766459,15.49458302,-65.939
     73.93750996,15.49463985,-66.087
     73.93735682,15.49469943,-66.065
     73.93721386,15.49475721,-65.714
     73.93708082,15.49480910,-65.754
     73.93695699,15.49485873,-65.688
     73.93683680,15.49490583,-65.156
     73.93672545,15.49494896,-64.857
     73.93662861,15.49499470,-64.677
     73.93655074,15.49502139,-63.755
     73.93648429,15.49505143,-63.301
     73.93642561,15.49508076,-63.197
     73.93636815,15.49508452,-64.050
     73.93632663,15.49509329,-64.005
     73.93629401,15.49510753,-63.856
     73.93627422,15.49511090,-63.539
     73.93625895,15.49511796,-63.425
     73.93624964,15.49512034,-63.378
     73.93623710,15.49514240,-60.806
     73.93624008,15.49513806,-61.236
     73.93624102,15.49513859,-61.343
     73.93624188,15.49513858,-61.639
     73.93622342,15.49514960,-61.006
     73.93621169,15.49515688,-61.433
     73.93619520,15.49516836,-61.351
     73.93617792,15.49518238,-61.645
     73.93614689,15.49519765,-61.232
     73.93611120,15.49521433,-60.731
     73.93606441,15.49522902,-60.646
     73.93602009,15.49524710,-60.387
     73.93597983,15.49528420,-58.054
     73.93594381,15.49529293,-57.911
     73.93591206,15.49530509,-58.081
     73.93586504,15.49531177,-58.595
     73.93582608,15.49533336,-59.181
     73.93575307,15.49536317,-60.126
     73.93566755,15.49539167,-59.600
     73.93559436,15.49541787,-59.718
     73.93551514,15.49544500,-59.383
     73.93542248,15.49548314,-59.794
     73.93534035,15.49549527,-60.507
     73.93527013,15.49552198,-61.046
     73.93519283,15.49554900,-61.341
     73.93511170,15.49557894,-61.326
     73.93503341,15.49560980,-61.735
     73.93495157,15.49563751,-61.790
     73.93487003,15.49566538,-62.033
     73.93478892,15.49569552,-61.827
     73.93471750,15.49572069,-61.582
     73.93465337,15.49574058,-61.587
     73.93459330,15.49576066,-61.514
     73.93453588,15.49578241,-61.315
     73.93448207,15.49580234,-61.060
     73.93442450,15.49582338,-60.872
     73.93437390,15.49584010,-60.973
     73.93432911,15.49585649,-60.317
     73.93428351,15.49586931,-60.356
     73.93426159,15.49588417,-60.071
     73.93421489,15.49589231,-61.071
     73.93418066,15.49589888,-62.319
     73.93414337,15.49591201,-63.966
     73.93410116,15.49592529,-64.556
     73.93405623,15.49593276,-65.041
     73.93400526,15.49594482,-64.602
     73.93394748,15.49596196,-63.913
     73.93389170,15.49597721,-64.840
     73.93383179,15.49599619,-65.023
     73.93377410,15.49601189,-65.376
     73.93371528,15.49604291,-65.936
     73.93365853,15.49605931,-66.041
     73.93359551,15.49606501,-68.685
     73.93353664,15.49607982,-69.741
     73.93347143,15.49609935,-69.466
     73.93340513,15.49611884,-69.953
     73.93334077,15.49613757,-70.655
     73.93327627,15.49615714,-70.316
     73.93322216,15.49616516,-70.184
     73.93316942,15.49617692,-70.404
     73.93310528,15.49620104,-72.271
     73.93306090,15.49621647,-71.649
     73.93302768,15.49621352,-72.169
     73.93296013,15.49622228,-72.665
     73.93290819,15.49623882,-72.629
     73.93283165,15.49625033,-72.574
     73.93275478,15.49626202,-72.839
     73.93267461,15.49627766,-72.582
     73.93258026,15.49629347,-71.723
     73.93250617,15.49631842,-71.206
     73.93244603,15.49635170,-70.625
     73.93239067,15.49636998,-69.429
     73.93233474,15.49637984,-69.835
     73.93229287,15.49640266,-68.825
     73.93226025,15.49641533,-67.552
     73.93222577,15.49641778,-67.664
     73.93220295,15.49642679,-67.603
     73.93218155,15.49643285,-67.809
     73.93215598,15.49643389,-67.768
     73.93213056,15.49643726,-67.328
     73.93210807,15.49644406,-67.122
     73.93208107,15.49644855,-67.293
     73.93205284,15.49645616,-67.402
     73.93201996,15.49646870,-67.505
     73.93198897,15.49647307,-67.868
     73.93196174,15.49647819,-67.802
     73.93193138,15.49648325,-67.870
     73.93189193,15.49649048,-67.745
     73.93184776,15.49649973,-67.640
     73.93180192,15.49651142,-67.740
     73.93175914,15.49652250,-68.696
     73.93171891,15.49653063,-67.591
     73.93167578,15.49653773,-67.532
     73.93163609,15.49654197,-68.538
     73.93159882,15.49654711,-67.889
     73.93155927,15.49655323,-67.878
     73.93151789,15.49655970,-67.915
     73.93147772,15.49656634,-68.214
     73.93143855,15.49657249,-68.582
     73.93139934,15.49657851,-68.032
     73.93135960,15.49658424,-67.771
     73.93131938,15.49659014,-67.855
     73.93128119,15.49659539,-67.448
     73.93124280,15.49660018,-66.440
     73.93120009,15.49660439,-65.847
     73.93115483,15.49661115,-65.719
     73.93109115,15.49660616,-66.102
     73.93106940,15.49661483,-68.044
     73.93103345,15.49661930,-68.113
     73.93097628,15.49662245,-69.331
     73.93091408,15.49662560,-69.707
     73.93086288,15.49663456,-69.568
     73.93080756,15.49664260,-69.010
     73.93075921,15.49665284,-69.126
     73.93071605,15.49666033,-68.260
     73.93066875,15.49667019,-67.476
     73.93062644,15.49667707,-67.487
     73.93058350,15.49667882,-68.125
     73.93053187,15.49670479,-66.981
     73.93048574,15.49672584,-65.400
     73.93043976,15.49673323,-66.094
     73.93040152,15.49673466,-65.891
     73.93035384,15.49674873,-66.831
     73.93031684,15.49673490,-67.124
     73.93028332,15.49674209,-67.313
     73.93024979,15.49673532,-69.503
     73.93022064,15.49673713,-70.420
     73.93018226,15.49674355,-69.829
     73.93018082,15.49674848,-70.414
     73.93014594,15.49675222,-70.534
     73.93010930,15.49675938,-70.736
     73.93007011,15.49676573,-70.924
     73.93002206,15.49677186,-70.020
     73.92997216,15.49677696,-69.934
     73.92992330,15.49678525,-69.418
     73.92987654,15.49679147,-68.539
     73.92983704,15.49680084,-70.076
     73.92980135,15.49681079,-69.276
     73.92976871,15.49681957,-70.003
     73.92973561,15.49682608,-69.955
     73.92969972,15.49683504,-69.616
     73.92966199,15.49684302,-70.825
     73.92962619,15.49685043,-71.059
     73.92958501,15.49685936,-69.676
     73.92954530,15.49686811,-69.156
     73.92948892,15.49686502,-68.510
     73.92944085,15.49687301,-69.341
     73.92939304,15.49687844,-69.745
     73.92933650,15.49688790,-70.135
     73.92928566,15.49690514,-70.970
     73.92923864,15.49691887,-71.252
     73.92919296,15.49693168,-71.229
     73.92915203,15.49694416,-71.063
     73.92909991,15.49696173,-70.073
     73.92904352,15.49696874,-70.264
     73.92898365,15.49697835,-70.294
     73.92891996,15.49698898,-69.357
     73.92886090,15.49699693,-69.507
     73.92881029,15.49700352,-70.101
     73.92876574,15.49701266,-71.572
     73.92871735,15.49702425,-71.654
     73.92867311,15.49702568,-72.302
     73.92863009,15.49703321,-72.815
     73.92859147,15.49704583,-72.718
     73.92855147,15.49705331,-73.008
     73.92851045,15.49705794,-73.949
     73.92846806,15.49706761,-74.036
     73.92839195,15.49707674,-74.194
     73.92833805,15.49708259,-75.274
     73.92828118,15.49709897,-75.085
     73.92822381,15.49710927,-74.600
     73.92817025,15.49711731,-74.625
     73.92813591,15.49712652,-74.637
     73.92810478,15.49713548,-74.880
     73.92807266,15.49714443,-74.917
     73.92803223,15.49715504,-74.561
     73.92797845,15.49716608,-74.614
     73.92791960,15.49717537,-74.100
     73.92786456,15.49718463,-74.014
     73.92780420,15.49718380,-73.750
     73.92777312,15.49719491,-73.989
     73.92772356,15.49720203,-73.962
     73.92767415,15.49720847,-73.993
     73.92764070,15.49721068,-74.021
     73.92760893,15.49721680,-73.793
     73.92760518,15.49721720,-74.436
     73.92759750,15.49721909,-74.642
     73.92759610,15.49721814,-74.720
     73.92757540,15.49721761,-74.140
     73.92755632,15.49722024,-73.890
     73.92752006,15.49721395,-73.459
     73.92745839,15.49724066,-73.661
     73.92742852,15.49725273,-74.078
     73.92739501,15.49725819,-73.284
     73.92735932,15.49726227,-73.225
     73.92731674,15.49726625,-72.854
     73.92726353,15.49727653,-73.269
     73.92721503,15.49729209,-72.851
     73.92716337,15.49730289,-73.587
     73.92709995,15.49731465,-73.715
     73.92703682,15.49732510,-73.738
     73.92697561,15.49733099,-74.472
     73.92691503,15.49733471,-74.398
     73.92685045,15.49734949,-75.083
     73.92677725,15.49737978,-76.012
     73.92670795,15.49738670,-76.039
     73.92663571,15.49741903,-77.965
     73.92657994,15.49742344,-76.911
     73.92652624,15.49742163,-75.894
     73.92649150,15.49742836,-75.215
     73.92642038,15.49744141,-74.695
     73.92634531,15.49744534,-75.000
     73.92626738,15.49746005,-74.633
     73.92619034,15.49747197,-74.046
     73.92611433,15.49748355,-73.800
     73.92602721,15.49749825,-71.781
     73.92595476,15.49751127,-71.174
     73.92586333,15.49751563,-70.007
     73.92576916,15.49751184,-67.563
     73.92568609,15.49751532,-68.248
     73.92559435,15.49752184,-68.032
     73.92549933,15.49753685,-66.861
     73.92541579,15.49754243,-65.158
     73.92532859,15.49755154,-64.685
     73.92524900,15.49755580,-65.584
     73.92516895,15.49756387,-66.402
     73.92509320,15.49756724,-65.433
     73.92500262,15.49757831,-64.496
     73.92491795,15.49758227,-64.413
     73.92482840,15.49758389,-64.196
     73.92473852,15.49758904,-64.164
     73.92465312,15.49759138,-63.943
     73.92456806,15.49759579,-63.720
     73.92448375,15.49759882,-63.672
     73.92440374,15.49760694,-63.842
     73.92431857,15.49760726,-63.559
     73.92424113,15.49761371,-63.194
     73.92416593,15.49761805,-62.677
     73.92407214,15.49762494,-63.573
     73.92398528,15.49762988,-64.421
     73.92389519,15.49762771,-64.566
     73.92381185,15.49764434,-66.162
     73.92371989,15.49765843,-66.063
     73.92362417,15.49767306,-66.515
     73.92353056,15.49768545,-66.155
     73.92344086,15.49769837,-66.770
     73.92335351,15.49771317,-65.732
     73.92325524,15.49772563,-65.279
     73.92318694,15.49776439,-65.611
     73.92313438,15.49780498,-65.653
     73.92296984,15.49780113,-65.962
     73.92287238,15.49781053,-66.329
     73.92278047,15.49781560,-66.354
     73.92272885,15.49783105,-66.516
     73.92267078,15.49785708,-66.990
     73.92261504,15.49786388,-66.718
     73.92255506,15.49788756,-66.301
     73.92249165,15.49791154,-65.010
     73.92242608,15.49793998,-64.509
     73.92234287,15.49796555,-64.169
     73.92226762,15.49799202,-63.690
     73.92218525,15.49802136,-63.017
     73.92211116,15.49804481,-62.737
     73.92205002,15.49806202,-62.343
     73.92201266,15.49808184,-63.288
     73.92197866,15.49809606,-64.404
     73.92193984,15.49810431,-63.560
     73.92188954,15.49812616,-64.695
     73.92181955,15.49815576,-64.000
     73.92174511,15.49817725,-64.227
     73.92166828,15.49819811,-64.642
     73.92158873,15.49820772,-65.173
     73.92149875,15.49822547,-65.196
     73.92140950,15.49824403,-65.166
     73.92133769,15.49828570,-65.212
     73.92124701,15.49831414,-65.052
     73.92114834,15.49833603,-65.212
     73.92104714,15.49836437,-65.339
     73.92094769,15.49838948,-65.366
     73.92084815,15.49841221,-65.663
     73.92072628,15.49843465,-66.775
     73.92061721,15.49846519,-67.143
     73.92049031,15.49849079,-67.232
     73.92036143,15.49851939,-66.974
     73.92024076,15.49854649,-66.176
     73.92011593,15.49856651,-66.480
     73.91999071,15.49858699,-66.858
     73.91986220,15.49861296,-66.714
     73.91973361,15.49863788,-67.339
     73.91959661,15.49866834,-67.147
     73.91946118,15.49869654,-66.682
     73.91932305,15.49872706,-66.581
     73.91918130,15.49875598,-66.626
     73.91904436,15.49877745,-66.944
     73.91890308,15.49880931,-67.336
     73.91876125,15.49883655,-67.558
     73.91861930,15.49886221,-67.101
     73.91847222,15.49889096,-67.015
     73.91832199,15.49891908,-67.309
     73.91817587,15.49894435,-67.734
     73.91802391,15.49897146,-68.392
     73.91787360,15.49899784,-68.032
     73.91772930,15.49902602,-68.179
     73.91758611,15.49904976,-68.578
     73.91744229,15.49907209,-68.974
     73.91730548,15.49909830,-68.321
     73.91716258,15.49912277,-69.242
     73.91701718,15.49914795,-69.865
     73.91688364,15.49916808,-69.280
     73.91674938,15.49919147,-70.040
     73.91661219,15.49921060,-70.426
     73.91646899,15.49922963,-69.974
     73.91634152,15.49925164,-69.248
     73.91620832,15.49926928,-68.500
     73.91607395,15.49927862,-69.089
     73.91593838,15.49929102,-68.779
     73.91579867,15.49930420,-68.693
     73.91565998,15.49930938,-69.041
     73.91552276,15.49931748,-69.225
     73.91538040,15.49932363,-68.918
     73.91523761,15.49933714,-67.987
     73.91509755,15.49933928,-68.557
     73.91495720,15.49933603,-69.327
     73.91482193,15.49934811,-69.830
     73.91468199,15.49935228,-69.850
     73.91454584,15.49935296,-69.025
     73.91441572,15.49934711,-69.567
     73.91429289,15.49931945,-69.738
     73.91418506,15.49930253,-69.675
     73.91408813,15.49927383,-69.464
     73.91400443,15.49926147,-69.388
     73.91392453,15.49922592,-68.722
     73.91386353,15.49918937,-69.322
     73.91379673,15.49918105,-69.084
     73.91376103,15.49916681,-68.742
     73.91379185,15.49915371,-68.313
     73.91378689,15.49914336,-67.303
     73.91379075,15.49913913,-66.550
     73.91379595,15.49913836,-65.233
     73.91380143,15.49914010,-62.904
     73.91380452,15.49914037,-62.677
     73.91380588,15.49913894,-62.386
     73.91378891,15.49913862,-62.985
     73.91378367,15.49912737,-62.972
     73.91378298,15.49911426,-62.672
     73.91378248,15.49908717,-63.194
     73.91377387,15.49908548,-63.057
     73.91377046,15.49907336,-62.043
     73.91376599,15.49906963,-60.554
     73.91376146,15.49906678,-60.342
     73.91375923,15.49906550,-60.431
     73.91375444,15.49906569,-59.643
     73.91374736,15.49906448,-60.387
     73.91373678,15.49906281,-59.708
     73.91372271,15.49906127,-61.046
     73.91370397,15.49906213,-62.542
     73.91367886,15.49905993,-61.853
     73.91364758,15.49905304,-61.517
     73.91361644,15.49904399,-61.879
     73.91358227,15.49903333,-61.778
     73.91354090,15.49902067,-61.498
     73.91348467,15.49902023,-62.029
     73.91343582,15.49901702,-63.952
     73.91340308,15.49900348,-63.240
     73.91335923,15.49901200,-64.644
     73.91331716,15.49898761,-63.853
     73.91327043,15.49897803,-61.461
     73.91321079,15.49894082,-60.885
     73.91316081,15.49890865,-60.395
     73.91310219,15.49888233,-59.970
     73.91302911,15.49884943,-60.339
     73.91296380,15.49882906,-60.191
     73.91291132,15.49875266,-60.124
     73.91283782,15.49871484,-62.349
     73.91275817,15.49865135,-60.988
     73.91266944,15.49859809,-62.515
     73.91258993,15.49855947,-63.126
     73.91249367,15.49851596,-62.654
     73.91242806,15.49846558,-61.378
     73.91235717,15.49842951,-59.654
     73.91228009,15.49838855,-58.953
     73.91219082,15.49835108,-58.912
     73.91211058,15.49830676,-59.976
     73.91202925,15.49826477,-60.087
     73.91195379,15.49822111,-59.649
     73.91186272,15.49817685,-60.737
     73.91178238,15.49813970,-62.373
     73.91170239,15.49808644,-62.671
     73.91162574,15.49803318,-63.036
     73.91154170,15.49797976,-64.199
     73.91146672,15.49792558,-63.906
     73.91139658,15.49787613,-63.644
     73.91131998,15.49782327,-62.742
     73.91124722,15.49777291,-61.729
     73.91117232,15.49771837,-62.001
     73.91108976,15.49766039,-61.363
     73.91100974,15.49759944,-60.015
     73.91094382,15.49754736,-60.446
     73.91087980,15.49748160,-60.101
     73.91081446,15.49741328,-58.959
     73.91074858,15.49734045,-57.704
     73.91069480,15.49726751,-56.773
     73.91063027,15.49720214,-55.781
     73.91057534,15.49712536,-55.302
     73.91052107,15.49704762,-53.735
     73.91046657,15.49696700,-53.297
     73.91041256,15.49688603,-53.393
     73.91035976,15.49680098,-52.872
     73.91031684,15.49671600,-53.334
     73.91026658,15.49663428,-52.023
     73.91021664,15.49654875,-51.448
     73.91016639,15.49646317,-50.551
     73.91011731,15.49638025,-50.212
     73.91007177,15.49629276,-50.284
     73.91002205,15.49621314,-49.996
     73.90997307,15.49613114,-50.216
     73.90991806,15.49604085,-48.676
     73.90985826,15.49592599,-47.300
     73.90981525,15.49580429,-47.062
     73.90975745,15.49567559,-46.812
     73.90969518,15.49558529,-46.552
     73.90964297,15.49549879,-46.219
     73.90959408,15.49540710,-46.411
     73.90954401,15.49531574,-45.668
     73.90948955,15.49522785,-44.602
     73.90944182,15.49512328,-43.011
     73.90939420,15.49503161,-41.715
     73.90934389,15.49493744,-40.536
     73.90929258,15.49483710,-38.746
     73.90924331,15.49474172,-37.292
     73.90919146,15.49464545,-36.709
     73.90914019,15.49454874,-36.735
     73.90906328,15.49439081,-36.180
     73.90898638,15.49425747,-35.685
     73.90893089,15.49416453,-35.453
     73.90887551,15.49406591,-34.555
     73.90882359,15.49396771,-33.903
     73.90877152,15.49386825,-33.004
     73.90871788,15.49376963,-31.996
     73.90866262,15.49367452,-31.460
     73.90860866,15.49357778,-30.969
     73.90855402,15.49347264,-29.832
     73.90850177,15.49337109,-28.665
     73.90844953,15.49326579,-28.873
     73.90839370,15.49316456,-28.183
     73.90834036,15.49306239,-27.615
     73.90828598,15.49295733,-27.026
     73.90823159,15.49285640,-26.766
     73.90816993,15.49275469,-26.749
     73.90812109,15.49265611,-26.281
     73.90806372,15.49255653,-25.563
     73.90800799,15.49244764,-24.970
     73.90795645,15.49233321,-23.918
     73.90789974,15.49221478,-24.274
     73.90784068,15.49210490,-24.416
     73.90778747,15.49199947,-23.998
     73.90772478,15.49189604,-23.733
     73.90766787,15.49179023,-22.840
     73.90760909,15.49168170,-22.727
     73.90755431,15.49157279,-22.391
     73.90750012,15.49146195,-21.651
     73.90744637,15.49136629,-22.198
     73.90739688,15.49126652,-22.705
     73.90734647,15.49116860,-22.368
     73.90729588,15.49106919,-23.031
     73.90724402,15.49097725,-22.734
     73.90719570,15.49089457,-22.165
     73.90714960,15.49080142,-20.283
     73.90709627,15.49070441,-19.305
     73.90705051,15.49062241,-18.140
     73.90700633,15.49053850,-17.826
     73.90696271,15.49045274,-17.669
     73.90691206,15.49037387,-17.535
     73.90685868,15.49029541,-17.471
     73.90680391,15.49021679,-17.628
     73.90677147,15.49012943,-16.384
     73.90673167,15.49005984,-15.702
     73.90668556,15.48998998,-15.106
     73.90663706,15.48991484,-14.765
     73.90658367,15.48982978,-13.302
     73.90653835,15.48976066,-12.553
     73.90649130,15.48966739,-12.668
     73.90643539,15.48958139,-11.579
     73.90637516,15.48949539,-11.365
     73.90631306,15.48941303,-9.316
     73.90625778,15.48932393,-8.275
     73.90619967,15.48923644,-6.034
    </coordinates>
   </LineString>
  </Placemark>

 </Document>
</kml>
 